NCES_LEA_ID,State_ID,District_Name,Mailing_Address,City,State_abbr,Zip_Code,Zip_4,Telephone
4800001,54901,CROSBYTON CISD,204 S HARRISON ST,CROSBYTON,TX,79322,2130,(806) 675-7331
4800002,63903,SPUR ISD,P O BOX 550,SPUR,TX,79370,550,(806) 271-3272
4800003,69901,ROCKSPRINGS ISD,P O BOX 157,ROCKSPRINGS,TX,78880,157,(830) 683-4137
4800004,15801,POR VIDA ACADEMY,1135 MISSION RD,SAN ANTONIO,TX,78210,4598,(210) 532-8816
4800005,177903,BLACKWELL CISD,P O BOX 505,BLACKWELL,TX,79506,505,(325) 282-2311
4800006,217901,ASPERMONT ISD,P O BOX 549,ASPERMONT,TX,79502,549,(940) 989-3355
4800007,42905,PANTHER CREEK CISD,129 PR 3421,VALERA,TX,76884,2009,(325) 357-4506
4800008,105904,DRIPPING SPRINGS ISD,P O BOX 479,DRIPPING SPRINGS,TX,78620,479,(512) 858-3000
4800009,105905,WIMBERLEY ISD,14401 RANCH RD 12,WIMBERLEY,TX,78676,6216,(512) 847-2414
4800010,105906,HAYS CISD,21003 INTERSTATE 35,KYLE,TX,78640,9530,(512) 268-2141
4800011,126901,ALVARADO ISD,PO BOX 387,ALVARADO,TX,76009,4206,(817) 783-6800
4800012,139905,CHISUM ISD,3250 S CHURCH ST,PARIS,TX,75462,8909,(903) 737-2830
4800014,15802,GEORGE GERVIN ACADEMY,6944 SUNBELT DR S,SAN ANTONIO,TX,78218,3336,(210) 568-8800
4800016,57804,DALLAS CAN ACADEMY CHARTER,325 W 12TH STE 200,DALLAS,TX,75208,5766,(214) 943-2244
4800017,101801,MEDICAL CENTER CHARTER SCHOOL,1920 N BRAESWOOD,HOUSTON,TX,77030,3711,(713) 791-9980
4800018,101802,SER-NINOS CHARTER SCHOOL,5815 ALDER DR,HOUSTON,TX,77081,5298,(713) 667-6145
4800019,101803,ARISTOI CLASSICAL ACADEMY,5618 11TH ST,KATY,TX,77493,1971,(281) 391-5003
4800020,101804,GEORGE I SANCHEZ CHARTER,6001 GULF FWY BLDG B3,HOUSTON,TX,77023,5423,(713) 926-1112
4800021,101805,GIRLS & BOYS PREPARATORY ACADEMY,8282 BISSONNET ST STE 125,HOUSTON,TX,77074,,(713) 270-5994
4800022,101806,RAUL YZAGUIRRE SCHOOL FOR SUCCESS,2950 BROADWAY,HOUSTON,TX,77017,6624,(713) 649-6201
4800023,108801,ONE STOP MULTISERVICE CHARTER SCHOOL,P O BOX 164,MCALLEN,TX,78504,164,(956) 393-2227
4800024,161801,WACO CHARTER SCHOOL,615 N 25TH ST,WACO,TX,76707,3443,(254) 754-8169
4800025,178801,DR M L GARZA-GONZALEZ CHARTER SCHOOL,4129 GREENWOOD DR,CORPUS CHRISTI,TX,78416,759,(361) 881-9988
4800026,178802,SEASHORE LEARNING CTR CHARTER,14493 SPID STE A PMB 307,CORPUS CHRISTI,TX,78418,5939,(361) 949-1222
4800027,227801,AMERICAN YOUTHWORKS CHARTER SCHOOL,1901 E BEN WHITE,AUSTIN,TX,78744,,(512) 744-1900
4800029,57802,PEGASUS SCHOOL OF LIBERAL ARTS AND SCIENCES,601 N AKARD ST STE 203,DALLAS,TX,75201,,(214) 740-9991
4800030,57803,NORTH HILLS PREPARATORY SCHOOL,606 E ROYAL LN,IRVING,TX,75039,3503,(972) 501-0645
4800031,101807,UNIVERSITY OF HOUSTON CHARTER SCHOOL,3855 HOLMAN ST MELCHER GYM 100,HOUSTON,TX,77204,6019,(713) 743-9107
4800032,101810,ACADEMY OF ACCELERATED LEARNING INC,6025 CHIMNEY ROCK,HOUSTON,TX,77081,,(713) 773-4766
4800034,212801,CUMBERLAND ACADEMY,8225 BROADWAY,TYLER,TX,75703,,(903) 581-2890
4800035,101815,ALIEF MONTESSORI COMMUNITY SCHOOL,4215 H ST,HOUSTON,TX,77072,5380,(281) 530-9406
4800036,243801,BRIGHT IDEAS CHARTER,2507 CENTRAL FREEWAY E,WICHITA FALLS,TX,76302,,(940) 767-1561
4800037,71801,BURNHAM WOOD CHARTER SCHOOL DISTRICT,7310 BISHOP FLORES DR,EL PASO,TX,79912,1429,(915) 584-9499
4800041,57806,ADVANTAGE ACADEMY,618 W WHEATLAND RD,DALLAS,TX,75116,,(214) 276-5800
4800042,161802,RAPOPORT ACADEMY PUBLIC SCHOOL,1020 ELM AVE BLDG 100,WACO,TX,76704,2237,(254) 754-8000
4800043,101809,BAY AREA CHARTER INC,P O BOX 2126,LEAGUE CITY,TX,77574,,(281) 316-0001
4800044,227803,EDEN PARK ACADEMY,6215 MANCHACA RD BLDG D,AUSTIN,TX,78745,,(512) 383-0613
4800045,24801,ENCINO SCHOOL,P O BOX 106 HWY 281,ENCINO,TX,78353,106,(361) 568-3375
4800047,232801,GABRIEL TAFOLLA ACADEMY,P O BOX 1709,UVALDE,TX,78802,1709,(830) 278-1297
4800048,236801,RAVEN SCHOOL,143 FOREST SERVICE RD 233,NEW WAVERLY,TX,77358,515,(936) 344-6677
4800049,101811,EXCEL ACADEMY,1200 CONGRESS STE 6500,HOUSTON,TX,77002,2021,(713) 222-4340
4800050,15803,HIGGS CARTER KING GIFTED & TALENTED CHARTER ACAD,511 FREDERICKSBURG RD,SAN ANTONIO,TX,78201,854,(210) 735-2341
4800051,101812,HOUSTON CAN ACADEMY CHARTER SCHOOL,325 W 12TH ST STE 200,DALLAS,TX,75208,,(214) 943-2244
4800053,15808,JOHN H WOOD JR PUBLIC CHARTER DISTRICT,3201 CHERRY RDG STE C 315,SAN ANTONIO,TX,78230,,(210) 638-5003
4800054,101813,KIPP INC CHARTER,10711 KIPP WAY,HOUSTON,TX,77099,,(832) 328-1051
4800055,57807,LIFE SCHOOL,950 S I 35 E,LANCASTER,TX,75146,,(972) 274-7900
4800056,84801,MAINLAND PREPARATORY ACADEMY,319 NEWMAN RD,LAMARQUE,TX,77568,1428,(409) 934-9100
4800058,227804,NYOS CHARTER SCHOOL,12301 N LAMAR BLVD,AUSTIN,TX,78753,6507,(512) 836-7620
4800059,15814,POSITIVE SOLUTIONS CHARTER SCHOOL,1325 N FLORES STE 100,SAN ANTONIO,TX,78212,,(210) 299-1025
4800061,15805,NEW FRONTIERS CHARTER SCHOOL,1313 SE MILITARY DR STE 117,SAN ANTONIO,TX,78214,,(210) 533-3655
4800062,15806,SCHOOL OF EXCELLENCE IN EDUCATION,1826 BASSE RD,SAN ANTONIO,TX,78213,4606,(210) 431-9881
4800063,15807,SOUTHWEST PREPARATORY SCHOOL,1258 AUSTIN HWY,SAN ANTONIO,TX,78209,4820,(210) 829-8017
4800064,227814,STAR CHARTER SCHOOL,1901 FLEISCHER DR,AUSTIN,TX,78728,,(512) 989-2672
4800065,108802,SOUTH TEXAS EDUCATIONAL TECHNOLOGIES INC,519 S TEXAS BLVD,WESLACO,TX,78596,173,(956) 969-3092
4800066,227805,TEXAS EMPOWERMENT ACADEMY,3613 BLUESTEIN DR,AUSTIN,TX,78721,,(512) 494-1076
4800067,14802,TRANSFORMATIVE CHARTER ACADEMY,802 N 8TH ST,KILLEEN,TX,76541,4818,(254) 628-8989
4800068,220801,TREETOPS SCHOOL INTERNATIONAL,12500 S PIPELINE RD,EULESS,TX,76040,5853,(817) 283-1771
4800069,101840,TWO DIMENSIONS PREPARATORY ACADEMY,12121 VETERANS MEMORIAL DR 9,HOUSTON,TX,77067,,(281) 893-9349
4800070,57808,UNIVERSAL ACADEMY,2616 N MACARTHUR BLVD,IRVING,TX,75062,5401,(972) 255-1800
4800071,227806,UNIVERSITY OF TEXAS UNIVERSITY CHARTER SCHOOL,P O BOX 7667,AUSTIN,TX,78713,7667,(512) 471-5652
4800072,57809,NOVA ACADEMY,P O BOX 170127,DALLAS,TX,75217,8456,(214) 391-3088
4800073,101814,THE VARNETT PUBLIC SCHOOL,P O BOX 1457,HOUSTON,TX,77251,1457,(713) 723-4699
4800074,3801,PINEYWOODS COMMUNITY ACADEMY,602 S RAGUET,LUFKIN,TX,75904,,(936) 634-5515
4800075,14801,RICHARD MILBURN ALTER HIGH SCHOOL (KILLEEN),1263 TERMINAL LOOP,MCQUEENEY,TX,78123,7215,(830) 557-6181
4800076,14803,TEMPLE EDUCATION CENTER,100 E PARK,LITTLE ELM,TX,75068,,(254) 778-8682
4800077,15809,BEXAR COUNTY ACADEMY,20820 GREENFIELD RD,OAK PARK,TX,48237,,(210) 432-8600
4800079,15813,GUARDIAN ANGEL PERFORMANCE ARTS ACADEMY,107 BLUE STAR,SAN ANTONIO,TX,78204,6587,(210) 253-9064
4800080,15815,RADIANCE ACADEMY OF LEARNING,12470 WOMAN HOLLERING RD,SCHERTZ,TX,78154,,(210) 659-0329
4800082,15819,SHEKINAH RADIANCE ACADEMY,12470 WOMAN HOLLERING RD,SCHERTZ,TX,78154,,(210) 659-0329
4800083,15950,REG 20 EDUCATION SERVICE CENTER,1314 HINES AVE,SAN ANTONIO,TX,78208,1899,(210) 370-5200
4800086,21803,BRAZOS SCHOOL FOR INQUIRY & CREATIVITY,410 BETHEL LN,BRYAN,TX,77802,,(979) 268-8884
4800089,57805,DALLAS COMMUNITY CHARTER SCHOOL,924 WAYNE ST,DALLAS,TX,75223,1138,(214) 824-8950
4800090,57810,ACADEMY OF DALLAS,20820 GREENFIELD RD,OAK PARK,TX,48237,,(214) 371-9600
4800091,57811,CHILDREN FIRST ACADEMY OF DALLAS,315 E WHEATLAND RD,DALLAS,TX,75241,1523,(214) 371-2545
4800092,57813,TRINITY BASIN PREPARATORY,400 S ZANG STE 700,DALLAS,TX,75208,,(214) 946-9100
4800093,57814,DALLAS COUNTY JUVENILE JUSTICE,2600 LONE STAR DR BOX 5,DALLAS,TX,75212,,(214) 698-4257
4800094,57815,FAITH FAMILY ACADEMY OF OAK CLIFF,1620 FALCON DR,DESOTO,TX,75115,,(972) 224-4110
4800095,57816,A W BROWN-FELLOWSHIP LEADERSHIP ACADEMY,5701 RED BIRD CTR DR,DALLAS,TX,75237,,(972) 709-4700
4800096,57817,FOCUS LEARNING ACADEMY,2524 W LEDBETTER DR,DALLAS,TX,75233,,(214) 467-7751
4800098,57819,JEAN MASSIEU ACADEMY,823 N CENTER ST,ARLINGTON,TX,76011,,(817) 460-0396
4800102,57825,HONORS ACADEMY,4300 MACARTHUR AVE STE 160,DALLAS,TX,75209,,(214) 521-6365
4800104,57950,REG 10 EDUCATION SERVICE CENTER,400 E SPRING VLY RD,RICHARDSON,TX,75081,5101,(972) 348-1700
4800105,70801,WAXAHACHIE FAITH FAMILY ACADEMY,1620 FALCON DR,DESOTO,TX,75115,,(972) 224-4110
4800106,71803,PASO DEL NORTE,P O BOX 15644,SAN ANTONIO,TX,78212,,(210) 227-0295
4800107,71950,REG 19 EDUCATION SERVICE CENTER,P O BOX 971127,EL PASO,TX,79997,1127,(915) 780-1919
4800108,84802,ODYSSEY ACADEMY INC,2412 61ST ST,GALVESTON,TX,77551,1430,(409) 750-9289
4800109,92801,EAST TEXAS CHARTER SCHOOLS,2402 ALPINE RD,LONGVIEW,TX,75601,,(903) 753-9400
4800110,92950,REG 7 EDUCATION SERVICE CENTER,1909 N LONGVIEW ST,KILGORE,TX,75662,6827,(903) 988-6700
4800111,101817,ALPHONSO CRUTCH'S-LIFE SUPPORT CENTER,7115 CLAREWOOD,HOUSTON,TX,77036,,(713) 779-9990
4800113,101819,AMIGOS POR VIDA-FRIENDS FOR LIFE PUB CHTR SCH,5500 EL CAMINO DEL REY,HOUSTON,TX,77081,,(713) 349-9945
4800114,101820,BENJI'S SPECIAL EDUCATIONAL ACADEMY CHARTER SCHOOL,1701 N CONGRESS AVE,AUSTIN,TX,78701,,(713) 229-0560
4800115,101821,HOUSTON HEIGHTS HIGH SCHOOL,1125 LAWRENCE DR,HOUSTON,TX,77008,,(713) 868-9797
4800116,101822,JAMIE'S HOUSE CHARTER SCHOOL,9000 W BELLFORT STE 110,HOUSTON,TX,77031,,(281) 866-9777
4800117,101823,CHILDREN FIRST ACADEMY OF HOUSTON,7803 E LITTLE YORK,HOUSTON,TX,77016,1523,(713) 491-9030
4800118,101828,HOUSTON GATEWAY ACADEMY INC,3400 EVERGREEN,HOUSTON,TX,77087,,(713) 644-8292
4800119,101829,HOUSTON HEIGHTS LEARNING ACADEMY INC,902 W 8TH ST,HOUSTON,TX,77007,,(713) 869-9453
4800121,101833,LA AMISTAD LOVE & LEARNING ACADEMY,10860 ROCKLEY RD,HOUSTON,TX,77099,,(281) 988-9231
4800122,101834,NORTH HOUSTON H S FOR BUSINESS,2700 POST OAK BLVD STE 1350,HOUSTON,TX,77056,,(713) 212-0600
4800124,101837,CALVIN NELMS CHARTER SCHOOLS,20625 CLAY RD,KATY,TX,77449,,(281) 398-8031
4800125,101838,SOUTHWEST SCHOOL,3333 BERING DR STE 200,HOUSTON,TX,77057,,(713) 784-6345
4800127,101842,COMQUEST ACADEMY,207 N PEACH ST,TOMBALL,TX,77375,,(281) 516-0611
4800130,101950,REG 4 EDUCATION SERVICE CENTER,7145 W TIDWELL,HOUSTON,TX,77092,2096,(713) 462-7708
4800132,105801,KATHERINE ANNE PORTER SCHOOL,P O BOX 2053,WIMBERLEY,TX,78676,,(512) 847-6867
4800133,108804,MID-VALLEY ACADEMY,PO BOX 15644,SAN ANTONIO,TX,78212,177,(210) 227-0295
4800136,108950,REG 1 EDUCATION SERVICE CENTER,1900 W SCHUNIOR,EDINBURG,TX,78541,2234,(956) 984-6000
4800139,123803,TEKOA ACADEMY OF ACCELERATED STUDIES,326 THOMAS BLVD,PORT ARTHUR,TX,77640,,(409) 982-5400
4800141,152802,RISE ACADEMY,207 N MARTIN LUTHER KING BLVD,LUBBOCK,TX,79403,,(806) 744-0430
4800142,152803,SOUTH PLAINS,PO BOX 15644,SAN ANTONIO,TX,78212,,(210) 227-0295
4800144,152950,REG 17 EDUCATION SERVICE CENTER,1111 W LOOP 289,LUBBOCK,TX,79416,5029,(806) 792-4000
4800146,161950,REG 12 EDUCATION SERVICE CENTER,P O BOX 23409,WACO,TX,76702,3409,(254) 297-1212
4800148,165802,MIDLAND ACADEMY CHARTER SCHOOL,500 N BAIRD,MIDLAND,TX,79701,4704,(432) 686-0003
4800150,165950,REG 18 EDUCATION SERVICE CENTER,P O BOX 60580,MIDLAND,TX,79711,580,(432) 563-2380
4800151,170801,TEXAS SERENITY ACADEMY,262 N SAM HOUSTON PKWY E,HOUSTON,TX,77060,,(281) 931-8887
4800152,178804,RICHARD MILBURN ALTER HIGH SCHOOL (CORPUS CHRISTI),1263 TERMINAL LOOP,MCQUEENEY,TX,78123,765,(830) 788-0198
4800154,178950,REG 2 EDUCATION SERVICE CENTER,209 N WATER ST,CORPUS CHRISTI,TX,78401,2599,(361) 561-8400
4800155,181950,REG 5 EDUCATION SERVICE CENTER,2295 DELAWARE ST,BEAUMONT,TX,77703,4299,(409) 951-1700
4800156,188950,REG 16 EDUCATION SERVICE CENTER,5800 BELL ST,AMARILLO,TX,79109,6230,(806) 677-5000
4800158,220802,ARLINGTON CLASSICS ACADEMY,2800 W ARKANSAS LN,ARLINGTON,TX,76016,,(817) 274-2008
4800159,72802,ERATH EXCELS ACADEMY INC,680 PEACH ORCHARD RD,STEPHENVILLE,TX,76401,3710,(254) 965-8883
4800162,220950,REG 11 EDUCATION SERVICE CENTER,3001 N FREEWAY,FORT WORTH,TX,76106,6596,(817) 740-3600
4800163,221801,RESPONSIVE EDUCATION SOLUTIONS,P O BOX 292730,LEWISVILLE,TX,75029,,(972) 316-3663
4800164,221950,REG 14 EDUCATION SERVICE CENTER,1850 HWY 351,ABILENE,TX,79601,4750,(325) 675-8600
4800165,225950,REG 8 EDUCATION SERVICE CENTER,PO BOX 1894,MT PLEASANT,TX,75456,1894,(903) 572-8551
4800166,226950,REG 15 EDUCATION SERVICE CENTER,P O BOX 5199,SAN ANGELO,TX,76902,5199,(325) 658-6571
4800169,227950,REG 13 EDUCATION SERVICE CENTER,5701 SPRINGDALE RD,AUSTIN,TX,78723,3675,(512) 919-5313
4800171,234801,RANCH ACADEMY,3120 VZCR 2318,CANTON,TX,75103,,(903) 479-3601
4800172,235950,REG 3 EDUCATION SERVICE CENTER,1905 LEARY LN,VICTORIA,TX,77901,2899,(361) 573-0731
4800173,236950,REG 6 EDUCATION SERVICE CENTER,3332 MONTGOMERY RD,HUNTSVILLE,TX,77340,6499,(936) 435-8400
4800174,240801,GATEWAY (STUDENT ALTERNATIVE PROGRAM INC),104 DEL COURTS STE 100,LAREDO,TX,78041,529,(956) 727-4700
4800176,243950,REG 9 EDUCATION SERVICE CENTER,301 LOOP 11,WICHITA FALLS,TX,76306,3706,(940) 322-6928
4800177,13801,ST MARY'S ACADEMY CHARTER SCHOOL,507 N FILMORE,BEEVILLE,TX,78102,653,(361) 358-5601
4800178,15817,SAN ANTONIO CAN HIGH SCHOOL,325 W 12TH ST,DALLAS,TX,75208,,(214) 943-2244
4800179,15822,JUBILEE ACADEMIC CENTER,4434 ROLAND,SAN ANTONIO,TX,78222,,(210) 333-6227
4800180,15823,SAN ANTONIO TECHNOLOGY ACADEMY,7300 BLANCO RD STE 606,SAN ANTONIO,TX,78216,4304,(210) 733-8100
4800182,25910,RON JACKSON STATE JUVENILE CORR COMPLEX UNIT I,P O BOX 1267,BROWNWOOD,TX,76804,1267,(325) 641-4200
4800183,25911,RON JACKSON STATE JUVENILE CORR COMPLEX UNIT II,P O BOX 872,BROWNWOOD,TX,76804,872,(325) 641-4245
4800184,57831,GATEWAY CHARTER ACADEMY,6103 HOUSTON SCHOOL RD,DALLAS,TX,75241,,(214) 375-2039
4800185,57832,ALPHA CHARTER SCHOOL,701 W STATE ST,GARLAND,TX,75040,,(972) 272-2173
4800186,57833,EDUCATION CENTER INTERNATIONAL ACADEMY,2422 N JUPITER RD,GARLAND,TX,75044,,(214) 703-9008
4800187,61802,EDUCATION CENTER,100 E PARK STE A,LITTLE ELM,TX,75068,,(972) 292-2405
4800189,49904,GAINESVILLE STATE SCHOOL,1379 FM 678,GAINESVILLE,TX,76240,9398,(940) 665-0701
4800190,101847,BEATRICE MAYES INSTITUTE CHARTER SCHOOL,5807 CALHOUN,HOUSTON,TX,77021,,(713) 747-5629
4800191,101848,NORTHWEST PREPARATORY,11500 NW FREEWAY STE 490,HOUSTON,TX,77092,,(713) 688-3649
4800192,101849,ACCELERATED INTERMEDIATE ACADEMY,P O BOX 20589,HOUSTON,TX,77225,,(713) 283-6298
4800193,101850,ZOE LEARNING ACADEMY,6701 CULLEN BLVD,HOUSTON,TX,77021,,(713) 748-4228
4800194,105802,TEXAS PREPARATORY SCHOOL,P O BOX 1643,SAN MARCOS,TX,78667,,(512) 805-7737
4800195,108808,VANGUARD ACADEMY,1200 E KELLY,PHARR,TX,78577,189,(956) 283-1700
4800196,108917,EVINS REGIONAL JUVENILE CENTER,3801 E MONTE CRISTO RD,EDINBURG,TX,78541,8901,(956) 289-5500
4800197,113904,CROCKETT STATE SCHOOL,1701 SW LOOP 304,CROCKETT,TX,75835,66,(936) 852-5000
4800198,15812,GEORGE I SANCHEZ CHARTER HS SAN ANTONIO BRANCH,201 MEREDITH DR,SAN ANTONIO,TX,78228,,(210) 270-8567
4800199,15816,ACADEMY OF CAREERS AND TECHNOLOGIES CHARTER SCHOOL,5503 GRISSOM RD STE 102,SAN ANTONIO,TX,78238,,(210) 534-9690
4800200,15820,SAN ANTONIO SCHOOL FOR INQUIRY & CREATIVITY,4618 SAN PEDRO STE 104,SAN ANTONIO,TX,78212,,(210) 738-0020
4800201,57827,NOVA ACADEMY (SOUTHEAST),P O BOX 170127,DALLAS,TX,75217,,(214) 391-5952
4800202,57828,WINFREE ACADEMY CHARTER SCHOOLS,6221 RIVERSIDE DR STE 110,IRVING,TX,75039,,(972) 869-3250
4800203,57829,A+ ACADEMY,9424 MILITARY PKWY,DALLAS,TX,75227,,(214) 381-2208
4800204,57830,INSPIRED VISION ACADEMY,9424 MILITARY PKWY,DALLAS,TX,75227,,(214) 381-2208
4800205,71804,EL PASO ACADEMY,11000 ARGAL CT,EL PASO,TX,79935,,(915) 590-8589
4800207,72801,PARADIGM ACCELERATED CHARTER SCHOOL,P O BOX 160,DUBLIN,TX,76446,,(254) 445-4844
4800209,101845,YES PREP PUBLIC SCHOOLS INC,6201 BONHOMME RD STE 168 N,HOUSTON,TX,77036,,(713) 574-7600
4800210,101846,HARMONY SCIENCE ACADEMY,9321 W SAM HOUSTON PKWY S,HOUSTON,TX,77099,,(713) 343-3333
4800211,108807,IDEA PUBLIC SCHOOLS,505 ANGELITA DR STE 9,WESLACO,TX,78596,182,(956) 377-8000
4800213,183801,PANOLA CHARTER SCHOOL,PO BOX 610,CARTHAGE,TX,75633,610,(903) 693-6355
4800214,213801,BRAZOS RIVER CHARTER SCHOOL,P O BOX 949,NEMO,TX,76070,,(254) 898-9226
4800215,220804,FORT WORTH CAN ACADEMY,325 W 12TH STE 200,DALLAS,TX,75208,,(214) 943-2244
4800219,116801,PHOENIX CHARTER SCHOOL,8501 JACK FINNEY BLVD,GREENVILLE,TX,75402,,(903) 454-7153
4800221,123805,EHRHART SCHOOL,3380 FANIN ST,BEAUMONT,TX,77701,,(409) 839-8200
4800222,123915,AL PRICE STATE JUVENILE CORRECTIONAL FACILITY,3890 FM 3514,BEAUMONT,TX,77705,2000,(409) 749-6127
4800223,144905,GIDDINGS STATE SCHOOL,P O BOX 600,GIDDINGS,TX,78942,600,(979) 542-4500
4800224,161926,MCLENNAN CO ST JUVENILE CORRECTION FACILITY I,116 BURLESON RD,MART,TX,76664,,(254) 297-8243
4800225,175909,CORSICANA RESIDENTIAL TREATMENT CENTER,4000 W 2ND AVE,CORSICANA,TX,75151,610,(903) 872-4821
4800226,188801,RICHARD MILBURN ACADEMY (AMARILLO),1263 TERMINAL LOOP,MCQUEENEY,TX,78123,,(830) 557-6181
4800227,193801,BIG SPRINGS CHARTER SCHOOL,PO BOX 399,LEAKEY,TX,78873,,(830) 232-7101
4800229,212803,AZLEWAY CHARTER SCHOOL,15892 CR26,TYLER,TX,75707,,(903) 566-8444
4800230,220808,METRO ACADEMY OF MATH AND SCIENCE,1111 GIBBINS RD,ARLINGTON,TX,76011,,(817) 299-5200
4800231,220809,FORT WORTH ACADEMY OF FINE ARTS,3901 S HULEN ST,FORT WORTH,TX,76109,,(817) 924-1482
4800232,227817,CEDARS INTERNATIONAL ACADEMY,8416 N IH 35,AUSTIN,TX,78753,,(512) 419-1551
4800234,244906,VICTORY FIELD CORRECTIONAL ACADEMY,P O BOX 2010,VERNON,TX,76385,2010,(940) 552-9347
4800235,14804,ORENDA CHARTER SCHOOL,2951 WILLIAMS DR,GEORGETOWN,TX,78628,,(512) 869-3020
4800236,57834,EVOLUTION ACADEMY CHARTER SCHOOL,1101 S SHERMAN ST,RICHARDSON,TX,75081,4852,(972) 907-3755
4800237,57835,GOLDEN RULE CHARTER SCHOOL,2602 W ILLINOIS AVE,DALLAS,TX,75233,,(214) 333-9330
4800238,101851,HOUSTON ALTERNATIVE PREPARATORY CHARTER SCHOOL,17300 EL CAMINO REAL STE 107A,HOUSTON,TX,77058,,(713) 721-6905
4800239,101852,JUAN B GALAVIZ CHARTER SCHOOL,1507 LITTLE YORK,HOUSTON,TX,77093,5187,(832) 300-6010
4800240,101853,RIPLEY HOUSE CHARTER SCHOOL,4500 BISSONNET STE 200,BELLAIRE,TX,77401,3113,(713) 315-6429
4800241,227816,HARMONY SCIENCE ACADEMY (AUSTIN),9321 W SAM HOUSTON PKWY S,HOUSTON,TX,77099,,(512) 835-7900
4800242,227818,AUSTIN CAN ACADEMY CHARTER SCHOOL,325 W 12TH ST STE 200,DALLAS,TX,75208,,(214) 943-2244
4800243,235801,OUTREACH ACADEMY,1501 E MOCKINGBIRD 104,VICTORIA,TX,77904,1109,(361) 573-4096
4800245,15824,SAN ANTONIO PREPARATORY ACADEMY,P O BOX 29690,SAN ANTONIO,TX,78229,1412,(210) 543-7218
4800246,15825,LIGHTHOUSE CHARTER SCHOOL,2718 FRONTIER DR,SAN ANTONIO,TX,78227,,(210) 674-4100
4800247,68801,RICHARD MILBURN ACADEMY (ECTOR COUNTY),1263 TERMINAL LOOP,MCQUEENEY,TX,78123,1605,(830) 557-6181
4800248,57836,ST ANTHONY SCHOOL,3732 MYRTLE STREET,DALLAS,TX,75215,,(214) 421-3645
4800249,101854,RICHARD MILBURN ACADEMY (SUBURBAN HOUSTON),1263 TERMINAL LOOP,MCQUEENEY,TX,78123,,(281) 209-3505
4800250,161927,MCLENNAN CO ST JUVENILE CORRECTION FACILITY II,116 BURLESON RD,MART,TX,76664,,(254) 297-8200
4800251,227819,UNIVERSITY OF TEXAS ELEMENTARY CHARTER SCHOOL,2200 E 6TH ST,AUSTIN,TX,78702,,(512) 495-9705
4800252,227905,TEXAS SCH FOR THE BLIND & VISUALLY IMPAIRED,1100 W 45TH ST,AUSTIN,TX,78756,3413,(512) 454-8631
4800253,227906,TEXAS SCH FOR THE DEAF,1102 S CONGRESS AVE,AUSTIN,TX,78704,,(512) 462-5353
4800254,220810,WESTLAKE ACADEMY CHARTER SCHOOL,2600 OTTINGER RD,WESTLAKE,TX,76262,,(817) 490-5757
4800255,220811,EAST FORT WORTH MONTESSORI ACADEMY,501 OAKLAND BLVD,FORT WORTH,TX,76103,,(817) 496-3003
4800256,220812,RICHARD MILBURN ACADEMY (FORT WORTH),1263 TERMINAL LOOP,MCQUEENEY,TX,78123,7155,(830) 788-0198
4800257,15826,KIPP SAN ANTONIO,735 FREDERICKSBURG RD,SAN ANTONIO,TX,78201,,(210) 735-7300
4800258,15827,SCHOOL OF SCIENCE AND TECHNOLOGY,1450 NE LOOP 410,SAN ANTONIO,TX,78209,,(210) 804-0222
4800259,46802,TRINITY CHARTER SCHOOL,P O BOX 141125,AUSTIN,TX,78714,1125,(512) 706-7564
4800260,57837,KIPP TRUTH ACADEMY,3200 S LANCASTER RD STE 230A,DALLAS,TX,75216,,(214) 375-8326
4800261,101000,HARRIS COUNTY DEPT OF ED,6300 IRVINGTON BLVD,HOUSTON,TX,77022,5618,(713) 694-6300
4800262,101855,MEYERPARK ELEMENTARY,P O BOX 35616,HOUSTON,TX,77235,5616,(713) 729-9712
4800263,101856,DRAW ACADEMY,3920 STONEY BROOK DR,HOUSTON,TX,77063,,(713) 706-3729
4800264,227820,KIPP AUSTIN PUBLIC SCHOOLS INC,8509 FM 969 BLDG C,AUSTIN,TX,78724,,(512) 637-6870
4800265,227821,AUSTIN DISCOVERY SCHOOL,8509 FM 969 STE 200,AUSTIN,TX,78724,,(512) 674-0700
4800266,15828,HARMONY SCIENCE ACAD (SAN ANTONIO),9321 W SAM HOUSTON PKWY S,HOUSTON,TX,77099,,(210) 674-7788
4800268,15830,BROOKS ACADEMY OF SCIENCE AND ENGINEERING,3803 LYSTER RD,SAN ANTONIO,TX,78235,,(210) 633-9006
4800269,57838,PEAK PREPARATORY SCHOOL,606 E ROYAL LN,IRVING,TX,75039,,(214) 821-7325
4800270,57839,LA ACADEMIA DE ESTRELLAS,111 S BECKLEY AVE,DALLAS,TX,75203,,(214) 946-8908
4800271,57840,RICHLAND COLLEGIATE HS OF MATH SCIENCE ENGINEERING,12800 ABRAMS,DALLAS,TX,75243,2199,(972) 761-6888
4800272,71806,HARMONY SCIENCE ACAD (EL PASO),9321 W SAM HOUSTON PKWY S,HOUSTON,TX,77099,,(713) 343-3333
4800274,101858,HARMONY SCHOOL OF EXCELLENCE,9321 W SAM HOUSTON PKWY S,HOUSTON,TX,77099,,(713) 343-3333
4800275,101859,STEPPING STONES CHARTER EL,11250 S WILCREST,HOUSTON,TX,77099,,(281) 988-7797
4800276,101860,KIPP SOUTHEAST HOUSTON,10711 KIPP WAY,HOUSTON,TX,77099,,(713) 842-1695
4800278,184801,CROSSTIMBERS ACADEMY,P O BOX 1327,WEATHERFORD,TX,76086,,(817) 648-2047
4800279,178807,CORPUS CHRISTI MONTESSORI SCHOOL,3530 GOLLIHAR RD,CORPUS CHRISTI,TX,78415,767,(361) 852-0707
4800280,220813,HARMONY SCIENCE ACAD (FORT WORTH),9321 W SAM HOUSTON PKWY S,HOUSTON,TX,77099,,(817) 263-0700
4800283,101861,THE RHODES SCHOOL,12822 ROBERT E LEE RD,HOUSTON,TX,77015,,(281) 458-4334
4800284,84804,AMBASSADORS PREPARATORY ACADEMY,5001 AVE U,GALVESTON,TX,77551,1866,(409) 762-1115
4800286,71807,LA FE PREPARATORY SCHOOL,616 E FATHER RAHM,EL PASO,TX,79901,,(915) 533-4690
4800287,220814,TEXAS ELEMENTARY SCHOOL OF THE ARTS,3901 S HULEN ST,FORT WORTH,TX,76109,,(817) 732-8372
4800288,57841,RECONCILIATION ACADEMY,1411 N PEAK ST,DALLAS,TX,75204,,(214) 824-4747
4800289,178808,SEASHORE MIDDLE ACAD,14493 S PADRE IS DR PMB 385,CORPUS CHRISTI,TX,78418,769,(361) 654-1134
4800291,236903,WINDHAM SCHOOL DISTRICT,P O BOX 40,HUNTSVILLE,TX,77342,40,(936) 291-5303
4800292,161807,HARMONY SCIENCE ACAD (WACO),9321 W SAM HOUSTON PKWY S,HOUSTON,TX,77099,,(254) 751-7878
4800293,152805,HARMONY SCIENCE ACAD (LUBBOCK),9321 W SAM HOUSTON PKWY S,HOUSTON,TX,77099,,(806) 747-1000
4801394,71809,VISTA DEL FUTURO CHARTER SCHOOL,7310 BISHOP FLORES,EL PASO,TX,79912,,(915) 855-8143
4801395,174801,STEPHEN F AUSTIN STATE UNIVERSITY CHARTER SCHOOL,P O BOX 6072 SFA STA,NACOGDOCHES,TX,75962,,(936) 468-2336
4801396,178809,SCHOOL OF SCIENCE AND TECHNOLOGY CORPUS CHRISTI,4737 SARATOGA BLVD,CORPUS CHRISTI,TX,78413,,(361) 851-2420
4801397,31803,HARMONY SCIENCE ACADEMY - BROWNSVILLE,9321 W SAM HOUSTON PKWY S,HOUSTON,TX,77099,,(956) 574-9555
4801399,57843,HAMPTON PREPARATORY,606 E ROYAL LN,IRVING,TX,75039,,(972) 421-1982
4801400,15831,SCHOOL OF SCIENCE AND TECHNOLOGY DISCOVERY,5707 BANDERA RD,SAN ANTONIO,TX,78238,,(210) 804-0222
4801401,220816,SUMMIT INTERNATIONAL PREPARATORY,606 E ROYAL LN,IRVING,TX,75039,,(817) 287-5121
4801402,61803,THE LEGENDS ACADEMY,2012 W UNIVERSITY DR,DENTON,TX,76201,,(940) 387-6021
4801403,240804,HARMONY SCIENCE ACADEMY - LAREDO,9321 W SAM HOUSTON PKWY S,HOUSTON,TX,77099,,(956) 712-1177
4801404,130801,MEADOWLAND CHARTER SCHOOL,P O BOX 2266,BOERNE,TX,78006,,(830) 331-4094
4801405,101862,HARMONY SCHOOL OF SCIENCE - HOUSTON,9321 W SAM HOUSTON PKWY S,HOUSTON,TX,77099,,(281) 265-2525
4801406,57842,WILLIAMS PREPARATORY,606 E ROYAL LN,IRVING,TX,75039,,(214) 276-0352
4801407,220815,CHAPEL HILL ACADEMY,3131 SANGUINET ST,FORT WORTH,TX,76107,,(817) 289-0242
4801408,101863,KOINONIA COMMUNITY LEARNING ACADEMY,3229 A HADLEY,HOUSTON,TX,77004,,(713) 659-5252
4801409,226801,TLC ACADEMY,5687 MELROSE,SAN ANGELO,TX,76901,,(325) 653-3200
4801410,123807,BOB HOPE SCHOOL,2849 9TH AVE,PORT ARTHUR,TX,77642,,(409) 983-3244
4801411,15832,CITY CENTER HEALTH CAREERS,1114 WILLOW,SAN ANTONIO,TX,78208,,(210) 255-8265
4801412,15833,HENRY FORD ACADEMY ALAMEDA SCHOOL FOR ART + DESIGN,439 ARBOR PLACE,SAN ANTONIO,TX,78207,,(210) 226-4031
4801413,227608,TEXAS YOUTH COMMISSION,P O BOX 4260,AUSTIN,TX,78765,4260,(512) 424-6161
4801414,227824,THE EAST AUSTIN COLLEGE PREP ACADEMY,6002 JAIN LN,AUSTIN,TX,78721,,(512) 287-5000
4801415,57844,MANARA ACADEMY,140 S HEARTZ,COPPELL,TX,75019,,(972) 304-1155
4801416,21805,ARROW ACADEMY,175 VERBENA,TEMPLE,TX,76502,,(979) 575-4346
4801417,68802,COMPASS ACADEMY CHARTER SCHOOL,6901 E HWY 191,ODESSA,TX,79762,9715,(432) 368-2512
4801418,101864,WALIPP-TSU PREPARATORY ACADEMY,5760 CULLEN BLVD,HOUSTON,TX,77021,,(713) 741-3600
4801419,101865,VICTORY PREP,6000 HEATHERBROOK DR,HOUSTON,TX,77085,,(713) 551-8800
4801420,61804,LEADERSHIP PREP SCHOOL,8500 TEEL PKWY,FRISCO,TX,75034,,(214) 918-5891
4801421,220817,NEWMAN INTERNATIONAL ACADEMY OF ARLINGTON,4603 ENCHANTED BAY BLVD,ARLINGTON,TX,76016,,(214) 236-5101
4801422,246801,MERIDIAN WORLD SCHOOL LLC,P O BOX 1607,GEORGETOWN,TX,78627,,(512) 635-3411
4801423,84805,PREMIER LEARNING ACADEMY,601 DELANY,LA MARQUE,TX,77568,,(832) 877-5822
4807350,21901,COLLEGE STATION ISD,1812 WELSH AVE,COLLEGE STATION,TX,77840,4851,(979) 764-5400
4807380,109901,ABBOTT ISD,P O BOX 226,ABBOTT,TX,76621,226,(254) 582-3011
4807410,95901,ABERNATHY ISD,505 7TH ST,ABERNATHY,TX,79311,3318,(806) 298-4940
4807440,221901,ABILENE ISD,P O BOX 981,ABILENE,TX,79604,981,(325) 677-1444
4807470,14901,ACADEMY ISD,704 E MAIN ST,LITTLE RIVER,TX,76554,9801,(254) 982-4304
4807500,180903,ADRIAN ISD,P O BOX 189,ADRIAN,TX,79001,189,(806) 538-6203
4807530,178901,AGUA DULCE ISD,P O BOX 250,AGUA DULCE,TX,78330,250,(361) 998-2542
4807590,15901,ALAMO HEIGHTS ISD,7101 BROADWAY ST,SAN ANTONIO,TX,78209,3797,(210) 824-2483
4807650,250906,ALBA-GOLDEN ISD,1373 CR 2377,ALBA,TX,75410,9706,(903) 768-2472
4807680,209901,ALBANY ISD,P O BOX 2050,ALBANY,TX,76430,188,(325) 762-2823
4807710,101902,ALDINE ISD,14910 ALDINE WESTFIELD RD,HOUSTON,TX,77032,3099,(281) 449-1011
4807780,184907,ALEDO ISD,1008 BAILEY RANCH RD,ALEDO,TX,76008,4407,(817) 441-8327
4807800,125901,ALICE ISD,2 COYOTE TRL,ALICE,TX,78332,4140,(361) 664-0981
4807830,101903,ALIEF ISD,P O BOX 68,ALIEF,TX,77411,68,(281) 498-8110
4807890,43901,ALLEN ISD,P O BOX 13,ALLEN,TX,75013,13,(972) 727-0511
4807950,22901,ALPINE ISD,704 W SUL ROSS AVE,ALPINE,TX,79830,4430,(432) 837-7700
4807980,37901,ALTO ISD,244 COUNTY RD 2429,ALTO,TX,75925,9599,(936) 858-7101
4808090,20901,ALVIN ISD,301 E HOUSE ST,ALVIN,TX,77511,3581,(281) 388-1130
4808100,249901,ALVORD ISD,P O BOX 70,ALVORD,TX,76225,70,(940) 427-5975
4808130,188901,AMARILLO ISD,7200 I 40 W,AMARILLO,TX,79106,2598,(806) 326-1000
4808160,140901,AMHERST ISD,P O BOX 248,AMHERST,TX,79312,248,(806) 246-3501
4808190,36901,ANAHUAC ISD,P O BOX 369,ANAHUAC,TX,77514,369,(409) 267-3600
4808230,93901,ANDERSON-SHIRO CISD,458 FM 149 W,ANDERSON,TX,77830,289,(936) 873-4500
4808280,2901,ANDREWS ISD,405 NW 3RD ST,ANDREWS,TX,79714,5098,(432) 523-3640
4808310,20902,ANGLETON ISD,1900 N DOWNING RD,ANGLETON,TX,77515,3799,(979) 864-8000
4808340,43902,ANNA ISD,501 S SHERLEY AVE,ANNA,TX,75409,128,(972) 924-1000
4808400,127901,ANSON ISD,1431 COMMERCIAL AVE,ANSON,TX,79501,5207,(325) 823-3671
4808430,71906,ANTHONY ISD,840 SIXTH ST,ANTHONY,TX,79821,1279,(915) 886-6500
4808460,110901,ANTON ISD,P O BOX 309,ANTON,TX,79313,309,(806) 997-2301
4808490,228905,APPLE SPRINGS ISD,P O BOX 125,APPLE SPRINGS,TX,75926,125,(936) 831-3344
4808520,109912,AQUILLA ISD,404 N RICHARDS,AQUILLA,TX,76622,9701,(254) 694-3770
4808550,4901,ARANSAS COUNTY ISD,P O BOX 907,ROCKPORT,TX,78381,907,(361) 790-2212
4808580,205901,ARANSAS PASS ISD,244 W HARRISON BLVD,ARANSAS PASS,TX,78336,2442,(361) 758-3466
4808610,5901,ARCHER CITY ISD,P O BOX 926,ARCHER CITY,TX,76351,926,(940) 574-4536
4808670,61910,ARGYLE ISD,800 EAGLE DR,ARGYLE,TX,76226,989,(940) 464-7241
4808700,220901,ARLINGTON ISD,1203 W PIONEER PKWY,ARLINGTON,TX,76013,6246,(682) 867-4611
4808730,212901,ARP ISD,PO 70,ARP,TX,75750,70,(903) 859-8482
4808870,107901,ATHENS ISD,104 HAWN ST,ATHENS,TX,75751,2423,(903) 677-6991
4808880,34901,ATLANTA ISD,106 W MAIN ST,ATLANTA,TX,75551,2211,(903) 796-4194
4808910,61907,AUBREY ISD,415 TISDELL LN,AUBREY,TX,76227,9619,(940) 668-0060
4808940,227901,AUSTIN ISD,1111 W 6TH ST,AUSTIN,TX,78703,5399,(512) 414-1700
4809000,196901,AUSTWELL-TIVOLI ISD,207 REDFISH ST,TIVOLI,TX,77990,4500,(361) 286-3212
4809030,70901,AVALON ISD,P O BOX 455,AVALON,TX,76623,455,(972) 627-3251
4809060,194902,AVERY ISD,150 SAN ANTONIO ST,AVERY,TX,75554,9551,(903) 684-3460
4809090,34902,AVINGER ISD,245 CONNOR ST,AVINGER,TX,75630,9501,(903) 562-1271
4809150,161918,AXTELL ISD,308 OTTAWA,AXTELL,TX,76624,429,(254) 863-5301
4809200,220915,AZLE ISD,300 ROE ST,AZLE,TX,76020,3194,(817) 444-3235
4809280,30903,BAIRD ISD,P O BOX 1147,BAIRD,TX,79504,1147,(325) 854-1400
4809300,200901,BALLINGER ISD,P O BOX 231,BALLINGER,TX,76821,231,(325) 365-3588
4809330,195902,BALMORHEA ISD,P O BOX 368,BALMORHEA,TX,79718,368,(432) 375-2223
4809360,10902,BANDERA ISD,P O BOX 727,BANDERA,TX,78003,727,(830) 796-3313
4809390,25901,BANGS ISD,P O BOX 969,BANGS,TX,76823,969,(325) 752-6612
4809410,178913,BANQUETE ISD,P O BOX 369,BANQUETE,TX,78339,369,(361) 387-2551
4809450,36902,BARBERS HILL ISD,P O BOX 1108,MONT BELVIEU,TX,77580,1108,(281) 576-2221
4809540,14902,BARTLETT ISD,P O BOX 170,BARTLETT,TX,76511,170,(254) 527-4247
4809570,11901,BASTROP ISD,906 FARM ST,BASTROP,TX,78602,3310,(512) 321-2292
4809630,158901,BAY CITY ISD,520 7TH ST,BAY CITY,TX,77414,1067,(979) 245-5766
4809670,123910,BEAUMONT ISD,3395 HARRISON AVE,BEAUMONT,TX,77706,5009,(409) 617-5000
4809690,183901,BECKVILLE ISD,P O BOX 37,BECKVILLE,TX,75631,37,(903) 678-3311
4809720,13901,BEEVILLE ISD,2400 N SAINT MARYS ST,BEEVILLE,TX,78102,2494,(361) 358-7111
4809750,39904,BELLEVUE ISD,P O BOX 38,BELLEVUE,TX,76228,38,(940) 928-2104
4809780,91901,BELLS ISD,P O BOX 7,BELLS,TX,75414,7,(903) 965-7721
4809810,8901,BELLVILLE ISD,518 S MATHEWS,BELLVILLE,TX,77418,2711,(979) 865-3133
4809860,14903,BELTON ISD,P O BOX 269,BELTON,TX,76513,269,(254) 215-2000
4809870,125902,BEN BOLT-PALITO BLANCO ISD,P O BOX 547,BEN BOLT,TX,78342,547,(361) 664-9904
4809980,138904,BENJAMIN ISD,P O BOX 166,BENJAMIN,TX,79505,166,(940) 459-2231
4810140,230901,BIG SANDY ISD,P O BOX 598,BIG SANDY,TX,75755,598,(903) 636-5318
4810170,187901,BIG SANDY ISD,P O BOX 188,DALLARDSVILLE,TX,77332,188,(936) 563-1000
4810200,114901,BIG SPRING ISD,708 E 11TH PL,BIG SPRING,TX,79720,4696,(432) 264-3600
4810230,220902,BIRDVILLE ISD,6125 E BELKNAP ST,HALTOM CITY,TX,76117,4204,(817) 547-5700
4810260,178902,BISHOP CISD,719 E SIXTH ST,BISHOP,TX,78343,2708,(361) 584-3591
4810320,16902,BLANCO ISD,814 ELEVENTH ST,BLANCO,TX,78606,340,(830) 833-4414
4810350,116915,BLAND ISD,P O BOX 216,MERIT,TX,75458,216,(903) 776-2239
4810380,25904,BLANKET ISD,901 AVE H,BLANKET,TX,76432,2584,(325) 748-5311
4810440,34909,BLOOMBURG ISD,307 W CYPRESS ST,BLOOMBURG,TX,75556,156,(903) 728-5216
4810470,175902,BLOOMING GROVE ISD,P O BOX 258,BLOOMING GROVE,TX,76626,258,(903) 695-2541
4810500,235901,BLOOMINGTON ISD,P O BOX 158,BLOOMINGTON,TX,77951,158,(361) 897-1652
4810590,43917,BLUE RIDGE ISD,10688 CR 504,BLUE RIDGE,TX,75424,9730,(972) 752-5554
4810620,72904,BLUFF DALE ISD,P O BOX 101,BLUFF DALE,TX,76433,101,(254) 728-3277
4810650,109913,BLUM ISD,P O BOX 520,BLUM,TX,76627,520,(254) 874-5231
4810710,130901,BOERNE ISD,123 W JOHNS RD,BOERNE,TX,78006,2023,(830) 357-2000
4810740,116916,BOLES ISD,9777 F M 2101,QUINLAN,TX,75474,4434,(903) 883-4464
4810780,241901,BOLING ISD,P O BOX 160,BOLING,TX,77420,160,(979) 657-2770
4810800,74903,BONHAM ISD,P O BOX 490,BONHAM,TX,75418,490,(903) 583-5526
4810830,148901,BOOKER ISD,P O BOX 288,BOOKER,TX,79005,288,(806) 658-4501
4810860,17901,BORDEN COUNTY ISD,P O BOX 95,GAIL,TX,79738,95,(806) 756-4313
4810890,117901,BORGER ISD,200 E 9TH ST,BORGER,TX,79007,3612,(806) 273-6481
4810910,161923,BOSQUEVILLE ISD,7636 ROCK CREEK RD,WACO,TX,76708,7225,(254) 757-3113
4810950,185901,BOVINA ISD,P O BOX 70,BOVINA,TX,79009,70,(806) 251-1336
4810990,169901,BOWIE ISD,P O BOX 1168,BOWIE,TX,76230,1168,(940) 872-1151
4811010,249902,BOYD ISD,P O BOX 92308,BOYD,TX,76023,3608,(940) 433-2327
4811040,180901,BOYS RANCH ISD,P O BOX 219,BOYS RANCH,TX,79010,219,(806) 534-2221
4811070,136901,BRACKETT ISD,P O BOX 586,BRACKETTVILLE,TX,78832,586,(830) 563-2491
4811110,160901,BRADY ISD,100 W MAIN,BRADY,TX,76825,4527,(325) 597-2301
4811190,20905,BRAZOSPORT ISD,P O DRAWER Z,FREEPORT,TX,77541,1926,(979) 730-7000
4811220,215901,BRECKENRIDGE ISD,P O BOX 1738,BRECKENRIDGE,TX,76424,1738,(254) 559-2278
4811250,198901,BREMOND ISD,P O BOX 190,BREMOND,TX,76629,190,(254) 746-7145
4811280,239901,BRENHAM ISD,P O BOX 1147,BRENHAM,TX,77834,1147,(979) 277-3700
4811310,181901,BRIDGE CITY ISD,1031 W ROUNDBUNCH RD,BRIDGE CITY,TX,77611,847,(409) 735-1602
4811340,249903,BRIDGEPORT ISD,2107 15TH ST,BRIDGEPORT,TX,76426,36,(940) 683-5124
4811400,242906,FORT ELLIOTT CISD,P O BOX 138,BRISCOE,TX,79011,138,(806) 375-2454
4811430,203902,BROADDUS ISD,P O BOX 58,BROADDUS,TX,75929,58,(936) 872-3041
4811460,184909,BROCK ISD,410 EAGLE SPIRIT LN,BROCK,TX,76087,9636,(817) 594-7642
4811490,41901,BRONTE ISD,P O BOX 670,BRONTE,TX,76933,670,(325) 473-2511
4811520,121902,BROOKELAND ISD,RT 2 BOX 18,BROOKELAND,TX,75931,8,(409) 698-2677
4811550,25908,BROOKESMITH ISD,P O BOX 706,BROOKESMITH,TX,76827,706,(325) 643-3023
4811580,24901,BROOKS COUNTY ISD,P O BOX 589,FALFURRIAS,TX,78355,589,(361) 325-8000
4811610,223901,BROWNFIELD ISD,601 TAHOKA RD,BROWNFIELD,TX,79316,3631,(806) 637-2591
4811640,107902,BROWNSBORO ISD,P O BOX 465,BROWNSBORO,TX,75756,465,(903) 852-3701
4811680,31901,BROWNSVILLE ISD,1900 PRICE RD,BROWNSVILLE,TX,78521,2417,(956) 548-8000
4811700,25902,BROWNWOOD ISD,P O BOX 730,BROWNWOOD,TX,76804,730,(325) 643-5644
4811730,161919,BRUCEVILLE-EDDY ISD,1 EAGLE DR,EDDY,TX,76524,99,(254) 859-5832
4811790,21902,BRYAN ISD,101 N TEXAS AVE,BRYAN,TX,77803,5398,(979) 209-1000
4811820,119901,BRYSON ISD,P O BOX 309,BRYSON,TX,76427,309,(940) 392-3281
4811850,166907,BUCKHOLTS ISD,P O BOX 248,BUCKHOLTS,TX,76518,248,(254) 593-3011
4811910,186901,BUENA VISTA ISD,P O BOX 310,IMPERIAL,TX,79743,310,(432) 536-2225
4811990,145901,BUFFALO ISD,708 CEDAR CREEK RD,BUFFALO,TX,75831,703,(903) 322-3765
4812060,212902,BULLARD ISD,P O BOX 250,BULLARD,TX,75757,250,(903) 894-6639
4812090,121903,BUNA ISD,P O BOX 1087,BUNA,TX,77612,1087,(409) 994-5101
4812120,243901,BURKBURNETT ISD,416 GLENDALE ST,BURKBURNETT,TX,76354,2499,(940) 569-3326
4812150,176901,BURKEVILLE ISD,P O BOX 218,BURKEVILLE,TX,75932,218,(409) 565-2201
4812180,126902,BURLESON ISD,1160 S W WILSHIRE BLVD,BURLESON,TX,76028,5719,(817) 245-1000
4812220,27903,BURNET CISD,208 E BRIER LN,BURNET,TX,78611,180,(512) 756-2124
4812240,239903,BURTON ISD,P O BOX 37,BURTON,TX,77835,37,(979) 289-3131
4812330,39901,BYERS ISD,P O BOX 286,BYERS,TX,76357,286,(940) 529-6102
4812360,109902,BYNUM ISD,P O BOX 68,BYNUM,TX,76631,68,(254) 623-4251
4812390,116901,CADDO MILLS ISD,P O BOX 160,CADDO MILLS,TX,75135,160,(903) 527-6056
4812420,178903,CALALLEN ISD,4205 WILDCAT DR,CORPUS CHRISTI,TX,78410,5198,(361) 242-5600
4812460,26901,CALDWELL ISD,203 N GRAY ST,CALDWELL,TX,77836,1549,(979) 567-9000
4812480,29901,CALHOUN COUNTY ISD,525 N COMMERCE ST,PORT LAVACA,TX,77979,3034,(361) 552-9728
4812510,49905,CALLISBURG ISD,148 DOZIER ST,CALLISBURG,TX,76240,6826,(940) 665-0540
4812540,198902,CALVERT ISD,P O BOX 7,CALVERT,TX,77837,7,(979) 364-2824
4812640,166901,CAMERON ISD,BOX 712,CAMERON,TX,76520,712,(254) 697-3512
4812660,116910,CAMPBELL ISD,409 W N ST,CAMPBELL,TX,75422,157,(903) 862-3259
4812700,106901,CANADIAN ISD,800 HILLSIDE AVE,CANADIAN,TX,79014,3233,(806) 323-5393
4812750,234902,CANTON ISD,225 W ELM ST,CANTON,TX,75103,1799,(903) 567-4179
4812780,71907,CANUTILLO ISD,P O BOX 100,CANUTILLO,TX,79835,100,(915) 877-7444
4812810,191901,CANYON ISD,P O BOX 899,CANYON,TX,79015,899,(806) 677-2600
4812870,201913,CARLISLE ISD,P O BOX 187,PRICE,TX,75687,187,(903) 861-3801
4812990,64903,CARRIZO SPRINGS CISD,300 N SEVENTH ST,CARRIZO SPRINGS,TX,78834,3102,(830) 876-2473
4813020,220919,CARROLL ISD,3051 DOVE RD,GRAPEVINE,TX,76051,,(817) 949-8222
4813050,57903,CARROLLTON-FARMERS BRANCH ISD,P O BOX 115186,CARROLLTON,TX,75011,5186,(972) 968-6100
4813110,183902,CARTHAGE ISD,1 BULLDOG DR,CARTHAGE,TX,75633,2370,(903) 693-3806
4813170,220917,CASTLEBERRY ISD,315 CHURCHILL RD,FORT WORTH,TX,76114,3729,(817) 252-2000
4813200,1902,CAYUGA ISD,P O BOX 427,CAYUGA,TX,75832,427,(903) 928-2102
4813230,57904,CEDAR HILL ISD,285 UPTOWN BLVD,CEDAR HILL,TX,75104,248,(972) 291-1581
4813260,116902,CELESTE ISD,P O BOX 67,CELESTE,TX,75423,67,(903) 568-4825
4813290,43903,CELINA ISD,205 S COLORADO,CELINA,TX,75009,188,(469) 742-9100
4813320,210901,CENTER ISD,P O DRAWER 1689,CENTER,TX,75935,3864,(936) 598-5642
4813350,133901,CENTER POINT ISD,P O BOX 377,CENTER POINT,TX,78010,377,(830) 634-2171
4813380,228904,CENTERVILLE ISD,10327 N STATE HWY 94,GROVETON,TX,75845,2651,(936) 642-1597
4813410,145902,CENTERVILLE ISD,813 S COMMERCE,CENTERVILLE,TX,75833,813,(903) 536-7812
4813440,174908,CENTRAL HEIGHTS ISD,10317 US HWY 259 N,NACOGDOCHES,TX,75965,9584,(936) 564-2681
4813500,3907,CENTRAL ISD,7622 US HWY 69 N,POLLOK,TX,75969,9710,(936) 853-2216
4813530,100907,LUMBERTON ISD,121 S MAIN,LUMBERTON,TX,77657,123,(409) 923-7580
4813590,101905,CHANNELVIEW ISD,1403 SHELDON RD,CHANNELVIEW,TX,77530,2603,(281) 452-8002
4813620,103901,CHANNING ISD,P O BOX A,CHANNING,TX,79018,107,(806) 235-3432
4813650,212909,CHAPEL HILL ISD,11134 CR 2249,TYLER,TX,75707,9752,(903) 566-2441
4813680,225906,CHAPEL HILL ISD,P O BOX 1257,MOUNT PLEASANT,TX,75456,1257,(903) 572-8096
4813710,7901,CHARLOTTE ISD,P O BOX 489,CHARLOTTE,TX,78011,489,(830) 277-1431
4813740,206903,CHEROKEE ISD,P O BOX 100,CHEROKEE,TX,76832,100,(325) 622-4298
4813770,229906,CHESTER ISD,P O BOX 28,CHESTER,TX,75936,2711,(936) 969-2371
4813800,249904,CHICO ISD,P O BOX 95,CHICO,TX,76431,95,(940) 644-2228
4813860,38901,CHILDRESS ISD,P O BOX 179,CHILDRESS,TX,79201,179,(940) 937-2501
4813890,99902,CHILLICOTHE ISD,P O BOX 418,CHILLICOTHE,TX,79225,418,(940) 852-5391
4813920,73901,CHILTON ISD,P O BOX 488,CHILTON,TX,76632,488,(254) 546-1200
4813960,161920,CHINA SPRING ISD,P O BOX 250,CHINA SPRING,TX,76633,250,(254) 836-1115
4813980,174901,CHIRENO ISD,P O BOX 85,CHIRENO,TX,75937,85,(936) 362-2132
4814010,226901,CHRISTOVAL ISD,P O BOX 162,CHRISTOVAL,TX,76935,162,(325) 896-2520
4814070,67902,CISCO ISD,P O BOX 1645,CISCO,TX,76437,1645,(254) 442-3056
4814130,243906,CITY VIEW ISD,1025 CITY VIEW DR,WICHITA FALLS,TX,76306,2201,(940) 855-4042
4814160,65901,CLARENDON ISD,P O BOX 610,CLARENDON,TX,79226,610,(806) 874-2062
4814190,194904,CLARKSVILLE ISD,1500 W MAIN ST,CLARKSVILLE,TX,75426,1016,(903) 427-3891
4814250,6902,CLAUDE ISD,P O BOX 209,CLAUDE,TX,79019,209,(806) 226-7331
4814280,84910,CLEAR CREEK ISD,P O BOX 799,LEAGUE CITY,TX,77574,799,(281) 284-0000
4814310,126903,CLEBURNE ISD,505 N RIDGEWAY STE 100,CLEBURNE,TX,76033,5118,(817) 202-1100
4814370,146901,CLEVELAND ISD,316 E DALLAS ST,CLEVELAND,TX,77327,4709,(281) 592-8717
4814400,18901,CLIFTON ISD,1102 KEY AVE,CLIFTON,TX,76634,1029,(254) 675-2827
4814430,71901,CLINT ISD,14521 HORIZON BLVD,EL PASO,TX,79928,,(915) 926-4000
4814450,30902,CLYDE CISD,P O BOX 479,CLYDE,TX,79510,479,(325) 893-4222
4814490,114902,COAHOMA ISD,P O BOX 110,COAHOMA,TX,79511,110,(432) 394-5000
4814520,204901,COLDSPRING-OAKHURST CISD,P O BOX 39,COLDSPRING,TX,77331,39,(936) 653-1115
4814550,42901,COLEMAN ISD,P O BOX 900,COLEMAN,TX,76834,900,(325) 625-3575
4814580,91902,COLLINSVILLE ISD,P O BOX 49,COLLINSVILLE,TX,76233,49,(903) 429-6272
4814600,229901,COLMESNEIL ISD,P O BOX 37,COLMESNEIL,TX,75938,37,(409) 837-5757
4814640,168901,COLORADO ISD,P O BOX 1268,COLORADO CITY,TX,79512,1268,(325) 728-3721
4814670,20907,COLUMBIA-BRAZORIA ISD,P O BOX 158,WEST COLUMBIA,TX,77486,158,(979) 345-5147
4814700,45902,COLUMBUS ISD,105 CARDINAL LN,COLUMBUS,TX,78934,578,(979) 732-5704
4814730,46902,COMAL ISD,1404 IH 35 N,NEW BRAUNFELS,TX,78130,3240,(830) 221-2000
4814760,47901,COMANCHE ISD,1414 N AUSTIN,COMANCHE,TX,76442,2328,(325) 356-2727
4814790,130902,COMFORT ISD,P O BOX 398,COMFORT,TX,78013,398,(830) 995-6400
4814820,116903,COMMERCE ISD,3315 WASHINGTON ST,COMMERCE,TX,75428,1251,(903) 886-3755
4814850,43918,COMMUNITY ISD,P O BOX 400,NEVADA,TX,75173,400,(972) 843-8400
4814880,112908,COMO-PICKTON CISD,P O BOX 18,COMO,TX,75431,18,(903) 488-3671
4814920,233903,COMSTOCK ISD,P O BOX 905,COMSTOCK,TX,78837,905,(432) 292-4444
4814970,161921,CONNALLY ISD,200 CADET WAY,WACO,TX,76705,1199,(254) 296-6460
4815000,170902,CONROE ISD,3205 W DAVIS,CONROE,TX,77304,,(936) 709-7751
4815120,147901,COOLIDGE ISD,P O BOX 70,COOLIDGE,TX,76635,70,(254) 786-2206
4815150,60902,COOPER ISD,P O BOX 478,COOPER,TX,75432,2519,(903) 395-2112
4815180,152906,LUBBOCK-COOPER ISD,16302 LOOP 493,LUBBOCK,TX,79423,9530,(806) 863-7100
4815210,57922,COPPELL ISD,200 S DENTON TAP RD,COPPELL,TX,75019,3205,(214) 496-6000
4815240,50910,COPPERAS COVE ISD,703 W AVE D,COPPERAS COVE,TX,76522,580,(254) 547-1227
4815270,178904,CORPUS CHRISTI ISD,P O BOX 110,CORPUS CHRISTI,TX,78403,110,(361) 886-9002
4815300,187904,CORRIGAN-CAMDEN ISD,504 S HOME ST,CORRIGAN,TX,75939,2501,(936) 398-4040
4815330,175903,CORSICANA ISD,601 N 13TH ST,CORSICANA,TX,75110,3298,(903) 874-7441
4815360,95902,COTTON CENTER ISD,P O BOX 350,COTTON CENTER,TX,79021,350,(806) 879-2160
4815400,142901,COTULLA ISD,310 N MAIN ST,COTULLA,TX,78014,2153,(830) 879-3073
4815420,246914,COUPLAND ISD,P O BOX 217,COUPLAND,TX,78615,217,(512) 856-2422
4815480,109903,COVINGTON ISD,P O BOX 67,COVINGTON,TX,76636,67,(254) 854-2215
4815510,129901,CRANDALL ISD,P O BOX 128,CRANDALL,TX,75114,128,(972) 427-6000
4815540,52901,CRANE ISD,511 W 8TH ST,CRANE,TX,79731,3036,(432) 558-1022
4815570,18908,CRANFILLS GAP ISD,P O BOX 67,CRANFILLS GAP,TX,76637,67,(254) 597-2505
4815600,161901,CRAWFORD ISD,200 PIRATE DR,CRAWFORD,TX,76638,120,(254) 486-2381
4815690,53001,CROCKETT COUNTY CONSOLIDATED CSD,P O BOX 400,OZONA,TX,76943,400,(325) 392-5501
4815720,113901,CROCKETT ISD,1400 W AUSTIN ST,CROCKETT,TX,75835,3145,(936) 544-2125
4815750,101906,CROSBY ISD,P O BOX 2009,CROSBY,TX,77532,8009,(281) 328-9200
4815810,30901,CROSS PLAINS ISD,700 N MAIN ST,CROSS PLAINS,TX,76443,2112,(254) 725-6121
4815840,107904,CROSS ROADS ISD,14434 FM 59,MALAKOFF,TX,75148,9801,(903) 489-2001
4815870,78901,CROWELL ISD,P O BOX 239,CROWELL,TX,79227,239,(940) 684-1403
4815910,220912,CROWLEY ISD,P O BOX 688,CROWLEY,TX,76036,688,(817) 297-5800
4815930,254901,CRYSTAL CITY ISD,805 E CROCKETT ST,CRYSTAL CITY,TX,78839,2799,(830) 374-2367
4815960,62901,CUERO ISD,405 PARK HEIGHTS DR,CUERO,TX,77954,2132,(361) 275-1900
4815990,55901,CULBERSON COUNTY-ALLAMOORE ISD,P O BOX 899,VAN HORN,TX,79855,899,(432) 283-2245
4816020,112905,CUMBY ISD,303 SAYLE ST,CUMBY,TX,75433,9501,(903) 994-2775
4816080,174902,CUSHING ISD,P O BOX 337,CUSHING,TX,75760,337,(936) 326-4890
4816110,101907,CYPRESS-FAIRBANKS ISD,P O BOX 692003,HOUSTON,TX,77269,2003,(281) 897-4000
4816140,163902,D'HANIS ISD,P O BOX 307,D'HANIS,TX,78850,307,(830) 363-7215
4816180,172902,DAINGERFIELD-LONE STAR ISD,200 TIGER DR,DAINGERFIELD,TX,75638,851,(903) 645-2239
4816200,56901,DALHART ISD,701 E 10TH,DALHART,TX,79022,2639,(806) 244-7810
4816230,57905,DALLAS ISD,3700 ROSS AVE,DALLAS,TX,75204,5491,(972) 925-3700
4816260,20910,DAMON ISD,P O BOX 429,DAMON,TX,77430,429,(979) 742-3457
4816290,20904,DANBURY ISD,P O BOX 378,DANBURY,TX,77534,378,(979) 922-1218
4816320,148905,DARROUZETT ISD,P O BOX 98,DARROUZETT,TX,79024,98,(806) 624-2221
4816350,58902,DAWSON ISD,P O BOX 180,WELCH,TX,79377,180,(806) 489-7568
4816380,175904,DAWSON ISD,199 N SCHOOL AVE,DAWSON,TX,76639,9632,(254) 578-1031
4816410,146902,DAYTON ISD,P O BOX 248,DAYTON,TX,77535,248,(936) 258-2667
4816440,47902,DE LEON ISD,425 S TEXAS ST,DE LEON,TX,76444,256,(254) 893-5095
4816500,249905,DECATUR ISD,309 S CATES,DECATUR,TX,76234,2360,(940) 393-7100
4816530,101908,DEER PARK ISD,203 IVY,DEER PARK,TX,77536,2747,(832) 668-7000
4816570,19901,DEKALB ISD,101 W MAPLE ST,DEKALB,TX,75559,1614,(903) 667-2566
4816620,227910,DEL VALLE ISD,5301 ROSS RD STE 103,DEL VALLE,TX,78617,9404,(512) 386-3010
4816650,115903,DELL CITY ISD,P O BOX 37,DELL CITY,TX,79837,37,(915) 964-2663
4816710,91903,DENISON ISD,1201 S RUSK AVE,DENISON,TX,75020,6340,(903) 462-7000
4816740,61901,DENTON ISD,1307 N LOCUST ST,DENTON,TX,76201,3037,(940) 369-0000
4816770,251901,DENVER CITY ISD,501 MUSTANG AVE,DENVER CITY,TX,79323,2752,(806) 592-5900
4816860,57906,DESOTO ISD,200 E BELT LINE RD,DESOTO,TX,75115,5795,(972) 223-6666
4816890,194905,DETROIT ISD,110 E GARNER AVE,DETROIT,TX,75436,9798,(903) 674-6131
4816920,146903,DEVERS ISD,P O BOX 488,DEVERS,TX,77538,488,(936) 549-7135
4816950,163901,DEVINE ISD,205 W COLLEGE,DEVINE,TX,78016,6080,(830) 851-0795
4816980,81906,DEW ISD,RT 2 BOX 60,TEAGUE,TX,75860,9999,(903) 389-2828
4817010,176903,DEWEYVILLE ISD,P O BOX 408,DEWEYVILLE,TX,77614,408,(409) 746-2731
4817040,3905,DIBOLL ISD,P O BOX 550,DIBOLL,TX,75941,550,(936) 829-4718
4817070,84901,DICKINSON ISD,P O DRAWER Z,DICKINSON,TX,77539,2026,(281) 229-6000
4817100,82902,DILLEY ISD,245 HWY 117,DILLEY,TX,78017,8040,(830) 965-1912
4817130,144903,DIME BOX ISD,P O DRAWER 157,DIME BOX,TX,77853,157,(979) 884-2324
4817160,35901,DIMMITT ISD,608 W HALSELL ST,DIMMITT,TX,79027,1798,(806) 647-3101
4817190,133905,DIVIDE ISD,120 DIVIDE SCHOOL RD,MOUNTAIN HOME,TX,78058,275,(830) 640-3322
4817280,74904,DODD CITY ISD,602 N MAIN ST,DODD CITY,TX,75438,9801,(903) 583-7585
4817390,108902,DONNA ISD,116 N 10TH ST,DONNA,TX,78537,2799,(956) 464-1600
4817400,86024,DOSS CONSOLIDATED CSD,11431 RANCH RD 648,DOSS,TX,78618,116,(830) 669-2411
4817460,174911,DOUGLASS ISD,P O BOX 38,DOUGLASS,TX,75943,38,(936) 569-9804
4817550,178905,DRISCOLL ISD,P O BOX 238,DRISCOLL,TX,78351,238,(361) 387-7349
4817580,72902,DUBLIN ISD,P O BOX 169,DUBLIN,TX,76446,169,(254) 445-3341
4817610,171901,DUMAS ISD,P O BOX 615,DUMAS,TX,79029,615,(806) 935-6461
4817640,57907,DUNCANVILLE ISD,802 S MAIN ST,DUNCANVILLE,TX,75137,2316,(972) 708-2000
4817700,220918,EAGLE MT-SAGINAW ISD,1200 OLD DECATUR RD,FORT WORTH,TX,76179,9160,(817) 232-0880
4817730,159901,EAGLE PASS ISD,1420 EIDSON RD,EAGLE PASS,TX,78852,5604,(830) 773-5181
4817760,227909,EANES ISD,601 CAMP CRAFT RD,AUSTIN,TX,78746,6511,(512) 732-9001
4817790,25909,EARLY ISD,P O BOX 3315,EARLY,TX,76803,3315,(325) 646-7934
4817830,241902,EAST BERNARD ISD,723 COLLEGE ST,EAST BERNARD,TX,77435,1148,(979) 335-7519
4817850,15911,EAST CENTRAL ISD,6634 NEW SULPHUR SPRINGS RD,SAN ANTONIO,TX,78263,9701,(210) 648-7861
4817880,36903,EAST CHAMBERS ISD,1955 STATE HWY 124,WINNIE,TX,77665,1296,(409) 296-6100
4817960,67903,EASTLAND ISD,P O BOX 31,EASTLAND,TX,76448,31,(254) 631-5120
4818000,68901,ECTOR COUNTY ISD,P O BOX 3912,ODESSA,TX,79760,3912,(432) 334-7100
4818030,74905,ECTOR ISD,P O BOX 128,ECTOR,TX,75439,128,(903) 961-2355
4818060,108903,EDCOUCH-ELSA ISD,P O BOX 127,EDCOUCH,TX,78538,127,(956) 262-6000
4818070,48901,EDEN CISD,P O BOX 988,EDEN,TX,76837,988,(325) 869-4121
4818120,234903,EDGEWOOD ISD,804 E PINE ST,EDGEWOOD,TX,75117,6,(903) 896-4332
4818150,15905,EDGEWOOD ISD,5358 W COMMERCE ST,SAN ANTONIO,TX,78237,1354,(210) 444-4500
4818180,108904,EDINBURG CISD,P O BOX 990,EDINBURG,TX,78540,990,(956) 289-2300
4818210,120901,EDNA ISD,P O BOX 919,EDNA,TX,77957,919,(361) 782-3573
4818280,241903,EL CAMPO ISD,700 W NORRIS ST,EL CAMPO,TX,77437,2499,(979) 543-6771
4818300,71902,EL PASO ISD,P O BOX 20100,EL PASO,TX,79998,100,(915) 779-3781
4818330,243902,ELECTRA ISD,P O BOX 231,ELECTRA,TX,76360,231,(940) 495-3683
4818360,11902,ELGIN ISD,P O BOX 351,ELGIN,TX,78621,351,(512) 281-3434
4818390,1903,ELKHART ISD,301 E PARKER ST,ELKHART,TX,75839,9701,(903) 764-2952
4818480,102906,ELYSIAN FIELDS ISD,P O BOX 120,ELYSIAN FIELDS,TX,75642,120,(903) 633-2420
4818540,70903,ENNIS ISD,P O BOX 1420,ENNIS,TX,75120,1420,(972) 872-7000
4818600,49906,ERA ISD,P O BOX 98,ERA,TX,76238,98,(940) 665-2007
4818660,174910,ETOILE ISD,P O BOX 98,ETOILE,TX,75944,98,(936) 465-9404
4818690,30906,EULA ISD,6040 F M 603,CLYDE,TX,79510,6610,(325) 529-3186
4818720,107905,EUSTACE ISD,P O BOX 188,EUSTACE,TX,75124,188,(903) 425-5151
4818750,121906,EVADALE ISD,P O BOX 497,EVADALE,TX,77615,497,(409) 276-1337
4818780,50901,EVANT ISD,P O BOX 339,EVANT,TX,76525,339,(254) 471-5536
4818810,220904,EVERMAN ISD,608 TOWNLEY DR,EVERMAN,TX,76140,5206,(817) 568-3500
4818840,210906,EXCELSIOR ISD,11270 STATE HWY 7 W,CENTER,TX,75935,5304,(936) 598-5866
4818890,143906,EZZELL ISD,20500 FM 531,HALLETTSVILLE,TX,77964,5474,(361) 798-4448
4818900,71903,FABENS ISD,P O BOX 697,FABENS,TX,79838,697,(915) 765-2600
4818940,81902,FAIRFIELD ISD,615 POST OAK RD,FAIRFIELD,TX,75840,2005,(903) 389-2532
4819020,128904,FALLS CITY ISD,P O BOX 399,FALLS CITY,TX,78113,399,(830) 254-3551
4819050,60914,FANNINDEL ISD,601 W MAIN ST,LADONIA,TX,75449,1517,(903) 367-7251
4819080,43904,FARMERSVILLE ISD,501 A HWY 78 N,FARMERSVILLE,TX,75442,472,(972) 782-6601
4819110,185902,FARWELL ISD,P O BOX F,FARWELL,TX,79325,235,(806) 481-3371
4819140,75906,FAYETTEVILLE ISD,P O BOX 129,FAYETTEVILLE,TX,78940,129,(979) 378-4242
4819170,70905,FERRIS ISD,P O BOX 459,FERRIS,TX,75125,459,(972) 544-3858
4819280,75901,FLATONIA ISD,P O BOX 189,FLATONIA,TX,78941,189,(361) 865-2941
4819320,246902,FLORENCE ISD,P O BOX 489,FLORENCE,TX,76527,489,(254) 793-2850
4819350,247901,FLORESVILLE ISD,908 10TH ST,FLORESVILLE,TX,78114,1852,(830) 393-5300
4819380,178914,FLOUR BLUFF ISD,2505 WALDRON RD,CORPUS CHRISTI,TX,78418,4798,(361) 694-9205
4819440,77901,FLOYDADA ISD,226 W CALIFORNIA ST,FLOYDADA,TX,79235,2705,(806) 983-3498
4819500,148902,FOLLETT ISD,P O DRAWER 28,FOLLETT,TX,79034,28,(806) 653-2301
4819530,169910,FORESTBURG ISD,P O BOX 415,FORESTBURG,TX,76239,415,(940) 964-2323
4819560,129902,FORNEY ISD,600 S BOIS D ARC ST,FORNEY,TX,75126,9682,(972) 564-4055
4819620,114904,FORSAN ISD,P O DRAWER A,FORSAN,TX,79733,125,(432) 457-2223
4819650,79907,FORT BEND ISD,16431 LEXINGTON BLVD,SUGAR LAND,TX,77479,2308,(281) 634-1000
4819700,220905,FORT WORTH ISD,100 N UNIVERSITY DR,FORT WORTH,TX,76107,3010,(817) 871-2000
4819740,198903,FRANKLIN ISD,P O BOX 909,FRANKLIN,TX,77856,909,(979) 828-7010
4819770,1904,FRANKSTON ISD,P O BOX 428,FRANKSTON,TX,75763,428,(903) 876-2556
4819820,66903,FREER ISD,P O BOX 240,FREER,TX,78357,240,(361) 394-6025
4819830,152907,FRENSHIP ISD,P O BOX 100,WOLFFORTH,TX,79382,100,(806) 866-9541
4819840,86901,FREDERICKSBURG ISD,234 FRIENDSHIP LN,FREDERICKSBURG,TX,78624,5053,(830) 997-9551
4819950,84911,FRIENDSWOOD ISD,302 LAUREL DR,FRIENDSWOOD,TX,77546,3923,(281) 482-1267
4819980,185903,FRIONA ISD,909 E 11TH ST,FRIONA,TX,79035,1416,(806) 250-2747
4820010,43905,FRISCO ISD,6942 MAPLE ST,FRISCO,TX,75034,3401,(469) 633-6000
4820040,175905,FROST ISD,P O BOX K,FROST,TX,76641,910,(903) 682-2711
4820070,234909,FRUITVALE ISD,P O BOX 77,FRUITVALE,TX,75127,77,(903) 896-1191
4820100,122901,FT DAVIS ISD,P O BOX 1339,FT DAVIS,TX,79734,1339,(432) 426-4440
4820130,115901,FT HANCOCK ISD,P O BOX 98,FT HANCOCK,TX,79839,98,(915) 769-3811
4820160,15914,FT SAM HOUSTON ISD,1902 WINANS RD,SAN ANTONIO,TX,78234,1497,(210) 368-8701
4820190,186902,FORT STOCKTON ISD,101 W DIVISION ST,FORT STOCKTON,TX,79735,7107,(432) 336-4000
4820220,49901,GAINESVILLE ISD,800 S MORRIS ST,GAINESVILLE,TX,76240,5621,(940) 665-4362
4820250,101910,GALENA PARK ISD,PO BOX 565,GALENA PARK,TX,77547,565,(832) 386-1000
4820280,84902,GALVESTON ISD,P O BOX 660,GALVESTON,TX,77553,660,(409) 766-5121
4820310,120902,GANADO ISD,P O BOX 1200,GANADO,TX,77962,1200,(361) 771-4200
4820340,57909,GARLAND ISD,501 S JUPITER,GARLAND,TX,75042,7108,(972) 494-8201
4820370,184911,GARNER ISD,2222 GARNER SCHOOL RD,WEATHERFORD,TX,76088,7044,(940) 682-4251
4820400,174903,GARRISON ISD,459 N US HWY 59,GARRISON,TX,75946,2117,(936) 347-7000
4820460,183904,GARY ISD,132 BOBCAT TRAIL,GARY,TX,75643,189,(903) 685-2291
4820500,50902,GATESVILLE ISD,311 S LOVERS LN,GATESVILLE,TX,76528,759,(254) 865-7251
4820520,166902,GAUSE ISD,P O BOX 38,GAUSE,TX,77857,38,(979) 279-5891
4820550,149901,GEORGE WEST ISD,913 HOUSTON ST,GEORGE WEST,TX,78022,3416,(361) 449-1914
4820600,246904,GEORGETOWN ISD,603 LAKEWAY DR,GEORGETOWN,TX,78628,2843,(512) 943-5000
4820610,161925,GHOLSON ISD,137 HAMILTON DR,WACO,TX,76705,5914,(254) 829-1528
4820640,144901,GIDDINGS ISD,P O BOX 389,GIDDINGS,TX,78942,389,(979) 542-2854
4820700,230902,GILMER ISD,500 SO TRINITY,GILMER,TX,75644,40,(903) 841-7400
4820760,92901,GLADEWATER ISD,500 W QUITMAN,GLADEWATER,TX,75647,2011,(903) 845-6991
4820790,87901,GLASSCOCK COUNTY ISD,P O BOX 9,GARDEN CITY,TX,79739,9,(432) 354-2230
4820850,213901,GLEN ROSE ISD,P O BOX 2129,GLEN ROSE,TX,76043,2129,(254) 898-3900
4820960,126911,GODLEY ISD,313 N PEARSON,GODLEY,TX,76044,3248,(817) 389-2536
4820970,169906,GOLD BURG ISD,468 PRATER RD,BOWIE,TX,76230,9801,(940) 872-3562
4821000,167901,GOLDTHWAITE ISD,P O BOX 608,GOLDTHWAITE,TX,76844,608,(325) 648-3531
4821030,88902,GOLIAD ISD,P O BOX 830,GOLIAD,TX,77963,830,(361) 645-3259
4821060,89901,GONZALES ISD,P O BOX 157,GONZALES,TX,78629,157,(830) 672-9551
4821090,187903,GOODRICH ISD,P O BOX 789,GOODRICH,TX,77335,789,(936) 365-1100
4821150,101911,GOOSE CREEK CISD,P O BOX 30,BAYTOWN,TX,77522,30,(281) 420-4842
4821180,182901,GORDON ISD,BOX 47,GORDON,TX,76453,47,(254) 693-5582
4821270,67904,GORMAN ISD,P O BOX 8,GORMAN,TX,76454,8,(254) 734-3171
4821300,156905,GRADY ISD,3500 FM 829,LENORAH,TX,79749,4000,(432) 459-2444
4821330,182902,GRAFORD ISD,400 W DIVISION,GRAFORD,TX,76449,9701,(940) 664-3101
4821360,252901,GRAHAM ISD,400 3RD ST,GRAHAM,TX,76450,3011,(940) 549-0595
4821390,111901,GRANBURY ISD,600 W PEARL ST,GRANBURY,TX,76048,2046,(817) 408-4000
4821420,57910,GRAND PRAIRIE ISD,BOX 531170,GRAND PRAIRIE,TX,75053,1170,(972) 264-6141
4821450,234904,GRAND SALINE ISD,400 STADIUM DR,GRAND SALINE,TX,75140,1149,(903) 962-7546
4821480,238904,GRANDFALLS-ROYALTY ISD,P O BOX 10,GRANDFALLS,TX,79742,10,(432) 547-2266
4821540,126904,GRANDVIEW ISD,P O BOX 310,GRANDVIEW,TX,76050,310,(817) 866-2450
4821560,90905,GRANDVIEW-HOPKINS ISD,11676 FM 293,GROOM,TX,79039,9801,(806) 669-3831
4821590,246905,GRANGER ISD,P O BOX 578,GRANGER,TX,76530,578,(512) 859-2613
4821600,226907,GRAPE CREEK ISD,8207 U S HWY 87 N,SAN ANGELO,TX,76901,9754,(325) 658-7823
4821630,113902,GRAPELAND ISD,P O BOX 249,GRAPELAND,TX,75844,249,(936) 687-4619
4821660,220906,GRAPEVINE-COLLEYVILLE ISD,3051 IRA E WOODS AVE,GRAPEVINE,TX,76051,3897,(817) 251-5547
4821720,116905,GREENVILLE ISD,P O BOX 1022,GREENVILLE,TX,75403,1022,(903) 457-2500
4821750,165902,GREENWOOD ISD,2700 FM 1379,MIDLAND,TX,79706,5330,(432) 685-7800
4821780,205902,GREGORY-PORTLAND ISD,608 COLLEGE ST,PORTLAND,TX,78374,906,(361) 777-1091
4821810,147902,GROESBECK ISD,P O BOX 559,GROESBECK,TX,76642,559,(254) 729-4100
4821840,33901,GROOM ISD,P O BOX 598,GROOM,TX,79039,598,(806) 248-7557
4821900,228901,GROVETON ISD,P O BOX 728,GROVETON,TX,75845,728,(936) 642-1473
4821930,98901,GRUVER ISD,P O BOX 650,GRUVER,TX,79040,650,(806) 733-2001
4821960,91917,GUNTER ISD,P O BOX 109,GUNTER,TX,75058,109,(903) 433-4750
4821990,47903,GUSTINE ISD,503 W MAIN ST,GUSTINE,TX,76455,9726,(325) 667-7303
4822020,135001,GUTHRIE CSD,P O BOX 70,GUTHRIE,TX,79236,70,(806) 596-4466
4822050,95903,HALE CENTER ISD,P O BOX 1210,HALE CENTER,TX,79041,1210,(806) 839-2451
4822120,143901,HALLETTSVILLE ISD,P O BOX 368,HALLETTSVILLE,TX,77964,368,(361) 798-2242
4822140,161924,HALLSBURG ISD,2313 HALLSBURG RD,WACO,TX,76705,5019,(254) 875-2331
4822170,102904,HALLSVILLE ISD,P O BOX 810,HALLSVILLE,TX,75650,810,(903) 668-5990
4822230,97902,HAMILTON ISD,P O BOX 392,HAMILTON,TX,76531,392,(254) 386-3149
4822260,127903,HAMLIN ISD,P O BOX 338,HAMLIN,TX,79520,338,(325) 576-2722
4822320,123914,HAMSHIRE-FANNETT ISD,P O BOX 223,HAMSHIRE,TX,77622,223,(409) 243-2514
4822350,219901,HAPPY ISD,P O BOX 458,HAPPY,TX,79042,458,(806) 558-5331
4822380,146904,HARDIN ISD,P O BOX 330,HARDIN,TX,77561,330,(936) 298-2112
4822410,100905,HARDIN-JEFFERSON ISD,P O BOX 490,SOUR LAKE,TX,77659,490,(409) 981-6400
4822470,15904,HARLANDALE ISD,102 GENEVIEVE ST,SAN ANTONIO,TX,78214,2997,(210) 989-4300
4822500,102905,HARLETON ISD,P O BOX 510,HARLETON,TX,75651,510,(903) 777-2372
4822530,31903,HARLINGEN CISD,407 N 77 SUNSHINE STRIP,HARLINGEN,TX,78550,57,(956) 430-9503
4822560,230905,HARMONY ISD,9788 STATE HWY 154 W,BIG SANDY,TX,75755,,(903) 725-5492
4822590,86902,HARPER ISD,P O BOX 68,HARPER,TX,78631,68,(830) 864-4044
4822620,244901,HARROLD ISD,P O BOX 400,HARROLD,TX,76364,400,(940) 886-2213
4822650,35902,HART ISD,P O BOX 490,HART,TX,79043,490,(806) 938-2143
4822680,103902,HARTLEY ISD,P O BOX 408,HARTLEY,TX,79044,408,(806) 365-4458
4822710,225907,HARTS BLUFF ISD,3506 FM 1402,MOUNT PLEASANT,TX,75455,9751,(903) 572-5427
4822740,104901,HASKELL CISD,P O BOX 937,HASKELL,TX,79521,937,(940) 864-2602
4822770,250902,HAWKINS ISD,P O BOX 1430,HAWKINS,TX,75765,1430,(903) 769-2181
4822800,127904,HAWLEY ISD,P O BOX 440,HAWLEY,TX,79525,440,(325) 537-2214
4822830,198905,HEARNE ISD,900 WHEELOCK ST,HEARNE,TX,77859,3096,(979) 279-3200
4822850,65902,HEDLEY ISD,P O BOX 69,HEDLEY,TX,79237,69,(806) 856-5323
4822890,202903,HEMPHILL ISD,P O BOX 1950,HEMPHILL,TX,75948,1950,(409) 787-3371
4822920,237902,HEMPSTEAD ISD,P O BOX 1007,HEMPSTEAD,TX,77445,1007,(979) 826-3304
4822970,201902,HENDERSON ISD,P O BOX 728,HENDERSON,TX,75653,728,(903) 655-5000
4822980,39902,HENRIETTA ISD,1801 E CRAFTON,HENRIETTA,TX,76365,2414,(940) 720-7900
4823010,59901,HEREFORD ISD,601 N 25 MILE AVE,HEREFORD,TX,79045,4406,(806) 364-0606
4823040,208901,HERMLEIGH ISD,1026 SCHOOL AVE,HERMLEIGH,TX,79526,195,(325) 863-2772
4823070,97903,HICO ISD,P O BOX 218,HICO,TX,76457,218,(254) 796-2181
4823100,108905,HIDALGO ISD,P O BOX 8220,HIDALGO,TX,78557,8220,(956) 843-4405
4823140,148903,HIGGINS ISD,P O BOX 218,HIGGINS,TX,79046,218,(806) 852-2171
4823160,84903,HIGH ISLAND ISD,P O BOX 246,HIGH ISLAND,TX,77623,246,(409) 286-5317
4823190,177905,HIGHLAND ISD,6625 FM 608,ROSCOE,TX,79545,9801,(325) 766-3652
4823250,57911,HIGHLAND PARK ISD,7015 WESTCHESTER DR,DALLAS,TX,75205,1061,(214) 780-3000
4823280,109904,HILLSBORO ISD,121 E FRANKLIN ST,HILLSBORO,TX,76645,2137,(254) 582-8585
4823310,84908,HITCHCOCK ISD,8117 HWY 6,HITCHCOCK,TX,77563,1796,(409) 316-6545
4823370,14905,HOLLAND ISD,P O BOX 217,HOLLAND,TX,76534,217,(254) 657-0175
4823400,5902,HOLLIDAY ISD,P O BOX 689,HOLLIDAY,TX,76366,689,(940) 586-1281
4823430,163904,HONDO ISD,P O BOX 308,HONDO,TX,78861,308,(830) 426-3027
4823460,74907,HONEY GROVE ISD,1206 N SEVENTEENTH ST,HONEY GROVE,TX,75446,1801,(903) 378-2264
4823490,19902,HOOKS ISD,100 E 5TH ST,HOOKS,TX,75561,39,(903) 547-6077
4823640,101912,HOUSTON ISD,4400 W 18TH ST,HOUSTON,TX,77092,8501,(713) 556-6000
4823670,91905,HOWE ISD,105 W TUTT ST,HOWE,TX,75459,4594,(903) 532-3228
4823700,19913,HUBBARD ISD,3347 HWY 259 S,DEKALB,TX,75559,274,(903) 667-2645
4823730,109905,HUBBARD ISD,P O BOX 218,HUBBARD,TX,76648,218,(254) 576-2564
4823760,72908,HUCKABAY ISD,200 COUNTY RD 421,STEPHENVILLE,TX,76401,6429,(254) 968-8476
4823790,3902,HUDSON ISD,6735 TED TROUT DR,LUFKIN,TX,75904,6641,(936) 875-3351
4823820,101925,HUFFMAN ISD,P O BOX 2390,HUFFMAN,TX,77336,2390,(281) 324-1871
4823850,34903,HUGHES SPRINGS ISD,871 TAYLOR ST,HUGHES SPRINGS,TX,75656,398,(903) 639-3802
4823880,146905,HULL-DAISETTA ISD,P O BOX 477,DAISETTA,TX,77533,477,(936) 536-6321
4823910,101913,HUMBLE ISD,P O BOX 2000,HUMBLE,TX,77347,2000,(281) 641-1000
4823970,133902,HUNT ISD,P O BOX 259,HUNT,TX,78024,259,(830) 238-4893
4824000,3904,HUNTINGTON ISD,P O BOX 328,HUNTINGTON,TX,75949,328,(936) 876-4287
4824030,236902,HUNTSVILLE ISD,441 FM 2821 E,HUNTSVILLE,TX,77320,9298,(936) 295-3421
4824060,220916,HURST-EULESS-BEDFORD ISD,1849A CENTRAL DR,BEDFORD,TX,76022,6096,(817) 283-4461
4824100,246906,HUTTO ISD,200 COLLEGE ST,HUTTO,TX,78634,430,(512) 759-3771
4824120,152910,IDALOU ISD,P O BOX 1338,IDALOU,TX,79329,1338,(806) 892-1900
4824150,120905,INDUSTRIAL ISD,P O BOX 369,VANDERBILT,TX,77991,369,(361) 284-3226
4824180,205903,INGLESIDE ISD,P O BOX 1320,INGLESIDE,TX,78362,1313,(361) 776-7631
4824210,133904,INGRAM ISD,510 COLLEGE ST,INGRAM,TX,78025,4100,(830) 367-5517
4824240,93903,IOLA ISD,P O BOX 159,IOLA,TX,77861,159,(936) 394-2361
4824260,243903,IOWA PARK CISD,P O BOX 898,IOWA PARK,TX,76367,898,(940) 592-4193
4824300,208903,IRA ISD,6143 W FM 1606,IRA,TX,79527,240,(325) 573-2629
4824330,186903,IRAAN-SHEFFIELD ISD,P O BOX 486,IRAAN,TX,79744,486,(432) 639-2512
4824360,18906,IREDELL ISD,P O BOX 39,IREDELL,TX,76649,39,(254) 364-2411
4824420,57912,IRVING ISD,P O BOX 152637,IRVING,TX,75015,2637,(972) 600-5000
4824450,70907,ITALY ISD,300 S COLLEGE,ITALY,TX,76651,909,(972) 483-1815
4824480,109907,ITASCA ISD,123 N COLLEGE,ITASCA,TX,76055,2307,(254) 687-2922
4824530,119902,JACKSBORO ISD,119 N 4TH ST,JACKSBORO,TX,76458,2214,(940) 567-7203
4824590,37904,JACKSONVILLE ISD,PO BOX 631,JACKSONVILLE,TX,75766,631,(903) 586-6511
4824600,246907,JARRELL ISD,P O BOX 9,JARRELL,TX,76537,9,(512) 746-2124
4824630,121904,JASPER ISD,128 PARK ST,JASPER,TX,75951,3466,(409) 384-2401
4824660,132902,JAYTON-GIRARD ISD,P O BOX 168,JAYTON,TX,79528,168,(806) 237-2991
4824730,155901,JEFFERSON ISD,1600 MLK,JEFFERSON,TX,75657,2116,(903) 665-2461
4824750,124901,JIM HOGG COUNTY ISD,P O BOX 880,HEBBRONVILLE,TX,78361,3025,(361) 527-3203
4824780,221911,JIM NED CISD,P O BOX 9,TUSCOLA,TX,79562,9,(325) 554-7500
4824810,210902,JOAQUIN ISD,11109 HWY 84 E,JOAQUIN,TX,75954,1029,(936) 269-3128
4824840,16901,JOHNSON CITY ISD,P O BOX 498,JOHNSON CITY,TX,78636,498,(830) 868-7410
4824900,50909,JONESBORO ISD,P O BOX 125,JONESBORO,TX,76538,125,(254) 463-2111
4824930,126905,JOSHUA ISD,P O BOX 40,JOSHUA,TX,76058,40,(817) 202-2500
4824960,7902,JOURDANTON ISD,200 ZANDERSON AVE,JOURDANTON,TX,78026,3045,(830) 769-3548
4824990,15916,JUDSON ISD,8012 SHIN OAK,LIVE OAK,TX,78233,2457,(210) 945-5100
4825020,134901,JUNCTION ISD,1700 COLLEGE ST,JUNCTION,TX,76849,4508,(325) 446-3510
4825110,102901,KARNACK ISD,P O BOX 259,KARNACK,TX,75661,259,(903) 679-3117
4825140,128901,KARNES CITY ISD,314 N HWY 123,KARNES CITY,TX,78118,1900,(830) 780-2321
4825170,101914,KATY ISD,P O BOX 159,KATY,TX,77492,159,(281) 396-6000
4825200,129903,KAUFMAN ISD,1000 S HOUSTON ST,KAUFMAN,TX,75142,2298,(972) 932-2622
4825230,126906,KEENE ISD,P O BOX 656,KEENE,TX,76059,656,(817) 774-5200
4825260,220907,KELLER ISD,350 KELLER PKWY,KELLER,TX,76248,3447,(817) 744-1000
4825290,242905,KELTON ISD,16703 FM 2697,WHEELER,TX,79096,7715,(806) 826-5795
4825320,129904,KEMP ISD,905 S MAIN ST,KEMP,TX,75143,9155,(903) 498-1314
4825410,131001,KENEDY COUNTY WIDE CSD,BOX 100,SARITA,TX,78385,100,(361) 294-5381
4825440,128902,KENEDY ISD,401 F M 719,KENEDY,TX,78119,2034,(830) 583-4100
4825470,113906,KENNARD ISD,304 HWY SEVEN E,KENNARD,TX,75847,38,(936) 655-2008
4825500,220914,KENNEDALE ISD,P O BOX 467,KENNEDALE,TX,76060,467,(817) 563-8000
4825530,175907,KERENS ISD,P O BOX 310,KERENS,TX,75144,310,(903) 396-2924
4825560,248901,KERMIT ISD,601 S POPLAR,KERMIT,TX,79745,4712,(432) 586-1000
4825590,133903,KERRVILLE ISD,1009 BARNETT ST,KERRVILLE,TX,78028,4614,(830) 257-2200
4825620,92902,KILGORE ISD,301 N KILGORE ST,KILGORE,TX,75662,5499,(903) 988-3900
4825660,14906,KILLEEN ISD,P O BOX 967,KILLEEN,TX,76540,967,(254) 336-0006
4825680,137901,KINGSVILLE ISD,P O BOX 871,KINGSVILLE,TX,78364,871,(361) 592-3387
4825710,121905,KIRBYVILLE CISD,206 E MAIN ST,KIRBYVILLE,TX,75956,2128,(409) 423-2284
4825740,101915,KLEIN ISD,7200 SPRING CYPRESS RD,KLEIN,TX,77379,3299,(832) 249-4000
4825790,58905,KLONDIKE ISD,2911 COUNTY RD H,LAMESA,TX,79331,4967,(806) 462-7334
4825800,232901,KNIPPA ISD,P O BOX 99,KNIPPA,TX,78870,99,(830) 934-2176
4825870,138902,KNOX CITY-O'BRIEN CISD,606 E MAIN ST,KNOX CITY,TX,79529,2226,(940) 657-3521
4825890,18907,KOPPERL ISD,P O BOX 67,KOPPERL,TX,76652,67,(254) 889-3502
4825920,100903,KOUNTZE ISD,P O BOX 460,KOUNTZE,TX,77625,460,(409) 246-3352
4825950,219905,KRESS ISD,P O BOX 970,KRESS,TX,79052,970,(806) 684-2652
4825980,61905,KRUM ISD,809 E MCCART,KRUM,TX,76249,9649,(940) 482-6000
4826040,31905,LA FERIA ISD,P O BOX 1159,LA FERIA,TX,78559,1159,(956) 797-8300
4826070,125906,LA GLORIA ISD,RT 1 BOX 87C,FALFURRIAS,TX,78355,9712,(361) 325-2330
4826100,75902,LA GRANGE ISD,P O BOX 100,LA GRANGE,TX,78945,100,(979) 968-7000
4826130,108912,LA JOYA ISD,201 E EXPY 83,LA JOYA,TX,78560,2009,(956) 580-5441
4826160,84904,LA MARQUE ISD,P O BOX 7,LA MARQUE,TX,77568,7,(409) 938-4251
4826190,101916,LA PORTE ISD,1002 SAN JACINTO ST,LA PORTE,TX,77571,6496,(281) 604-7015
4826220,107910,LAPOYNOR ISD,13155 HWY 175 E,LARUE,TX,75770,9666,(903) 876-4057
4826250,254902,LA PRYOR ISD,P O BOX 519,LA PRYOR,TX,78872,519,(830) 365-4000
4826280,161906,LA VEGA ISD,3100 BELLMEAD DR,WACO,TX,76705,3096,(254) 799-4963
4826310,247903,LA VERNIA ISD,13600 US HWY 87 W,LA VERNIA,TX,78121,9554,(830) 779-6600
4826340,108914,LA VILLA ISD,P O BOX 9,LA VILLA,TX,78562,9,(956) 262-4755
4826370,15913,LACKLAND ISD,2460 KENLY AVE BLDG 8265,SAN ANTONIO,TX,78236,1244,(210) 357-5000
4826400,227912,LAGO VISTA ISD,P O BOX 4929,LAGO VISTA,TX,78645,9,(512) 267-8300
4826430,61912,LAKE DALLAS ISD,P O BOX 548,LAKE DALLAS,TX,75065,548,(940) 497-4039
4826470,227913,LAKE TRAVIS ISD,3322 RANCH RD 620 S,AUSTIN,TX,78738,6801,(512) 533-6000
4826490,220910,LAKE WORTH ISD,6805 TELEPHONE RD,LAKE WORTH,TX,76135,2899,(817) 306-4205
4826580,79901,LAMAR CISD,3911 AVE I,ROSENBERG,TX,77471,3901,(832) 223-0000
4826610,58906,LAMESA ISD,P O BOX 261,LAMESA,TX,79331,261,(806) 872-5461
4826640,141901,LAMPASAS ISD,207 W 8TH ST,LAMPASAS,TX,76550,3125,(512) 556-6224
4826670,57913,LANCASTER ISD,422 S CENTRE AVE,LANCASTER,TX,75146,1621,(972) 218-1400
4826700,201903,LANEVILLE ISD,7415 FM 1798 W,LANEVILLE,TX,75667,127,(903) 863-5353
4826790,240901,LAREDO ISD,1702 HOUSTON ST,LAREDO,TX,78040,531,(956) 795-3200
4826850,245901,LASARA ISD,P O BOX 57,LASARA,TX,78561,57,(956) 642-3598
4826910,113905,LATEXO ISD,P O BOX 975,LATEXO,TX,75849,975,(936) 544-5664
4826970,185904,LAZBUDDIE ISD,P O BOX 9,LAZBUDDIE,TX,79053,9,(806) 965-2156
4827000,193902,LEAKEY ISD,P O BOX 1129,LEAKEY,TX,78873,1129,(830) 232-6122
4827030,246913,LEANDER ISD,P O BOX 218,LEANDER,TX,78646,218,(830) 232-6122
4827060,19914,LEARY ISD,P O BOX 519,HOOKS,TX,75561,519,(903) 838-8960
4827090,90902,LEFORS ISD,P O BOX 390,LEFORS,TX,79054,390,(806) 835-2533
4827120,187906,LEGGETT ISD,P O BOX 68,LEGGETT,TX,77350,68,(936) 398-2804
4827180,145911,LEON ISD,P O BOX 157,JEWETT,TX,75846,157,(903) 626-1400
4827210,74909,LEONARD ISD,1 TIGER ALLEY,LEONARD,TX,75452,4000,(903) 587-2318
4827240,110902,LEVELLAND ISD,704 11TH ST,LEVELLAND,TX,79336,5424,(806) 894-9628
4827270,201904,LEVERETTS CHAPEL ISD,P O BOX 669,LAIRD HILL,TX,75666,669,(903) 834-6675
4827300,61902,LEWISVILLE ISD,P O BOX 217,LEWISVILLE,TX,75067,217,(469) 713-5200
4827330,144902,LEXINGTON ISD,8731 N HWY 77,LEXINGTON,TX,78947,248,(979) 773-2254
4827390,19908,LIBERTY-EYLAU ISD,2901 LEOPARD DR,TEXARKANA,TX,75501,7817,(903) 832-1535
4827420,246908,LIBERTY HILL ISD,14001 W HWY 29,LIBERTY HILL,TX,78642,68,(512) 260-5580
4827450,146906,LIBERTY ISD,1600 GRAND AVE,LIBERTY,TX,77575,4725,(936) 336-7213
4827510,212903,LINDALE ISD,P O BOX 370,LINDALE,TX,75771,370,(903) 881-4001
4827540,34905,LINDEN-KILDARE CISD,205 KILDARE RD,LINDEN,TX,75563,840,(903) 756-5027
4827570,49907,LINDSAY ISD,P O BOX 145,LINDSAY,TX,76250,145,(940) 668-8923
4827600,72909,LINGLEVILLE ISD,P O BOX 134,LINGLEVILLE,TX,76461,134,(254) 968-2596
4827630,111902,LIPAN ISD,211 N KICKAPOO,LIPAN,TX,76462,2429,(254) 646-2266
4827690,181908,LITTLE CYPRESS-MAURICEVILLE CISD,6586 FM 1130,ORANGE,TX,77632,708,(409) 883-2232
4827720,61914,LITTLE ELM ISD,500 LOBO LN,LITTLE ELM,TX,75068,5220,(972) 292-1847
4827750,140904,LITTLEFIELD ISD,1207 E 14TH ST,LITTLEFIELD,TX,79339,4207,(806) 385-3844
4827780,187907,LIVINGSTON ISD,P O BOX 1297,LIVINGSTON,TX,77351,1297,(936) 328-2100
4827810,150901,LLANO ISD,200 E LAMPASAS,LLANO,TX,78643,2734,(325) 247-4747
4827870,28902,LOCKHART ISD,P O BOX 120,LOCKHART,TX,78644,120,(512) 398-0000
4827890,77902,LOCKNEY ISD,P O BOX 428,LOCKNEY,TX,79241,428,(806) 652-2115
4827930,160905,LOHN ISD,P O BOX 277,LOHN,TX,76852,277,(325) 344-5749
4827960,141902,LOMETA ISD,P O BOX 250,LOMETA,TX,76853,250,(512) 752-3384
4827990,178906,LONDON ISD,1306 FM 43,CORPUS CHRISTI,TX,78415,9713,(361) 855-0092
4828020,116906,LONE OAK ISD,8162 HWY 69 S,LONE OAK,TX,75453,38,(903) 662-5427
4828110,92903,LONGVIEW ISD,P O BOX 3268,LONGVIEW,TX,75606,3268,(903) 381-2200
4828140,83902,LOOP ISD,P O BOX 917,LOOP,TX,79342,917,(806) 487-6412
4828170,168902,LORAINE ISD,P O BOX 457,LORAINE,TX,79532,457,(325) 737-2235
4828200,161907,LORENA ISD,P O BOX 97,LORENA,TX,76655,97,(254) 857-3239
4828230,54902,LORENZO ISD,P O BOX 520,LORENZO,TX,79343,520,(806) 634-5591
4828290,31906,LOS FRESNOS CISD,P O BOX 309,LOS FRESNOS,TX,78566,96,(956) 254-5000
4828350,241906,LOUISE ISD,P O BOX 97,LOUISE,TX,77455,97,(979) 648-2982
4828380,43919,LOVEJOY ISD,259 COUNTRY CLUB RD,ALLEN,TX,75002,7643,(469) 742-8000
4828410,113903,LOVELADY ISD,P O BOX 99,LOVELADY,TX,75851,99,(936) 636-7616
4828500,152901,LUBBOCK ISD,1628 19TH ST,LUBBOCK,TX,79401,4895,(806) 766-1000
4828530,127905,LUEDERS-AVOCA ISD,334 VANDEVENTER ST,LUEDERS,TX,79533,1148,(325) 228-4211
4828550,3903,LUFKIN ISD,P O BOX 1407,LUFKIN,TX,75902,1407,(936) 634-6696
4828590,28903,LULING ISD,212 E BOWIE ST,LULING,TX,78648,2904,(830) 875-3191
4828620,245902,LYFORD CISD,P O BOX 220,LYFORD,TX,78569,220,(956) 347-3900
4828650,7904,LYTLE ISD,P O BOX 745,LYTLE,TX,78052,745,(830) 709-5100
4828680,129905,MABANK ISD,310 E MARKET ST,MABANK,TX,75147,8377,(903) 880-1300
4828710,154901,MADISONVILLE CISD,P O BOX 879,MADISONVILLE,TX,77864,879,(936) 348-2797
4828740,170906,MAGNOLIA ISD,P O BOX 88,MAGNOLIA,TX,77353,88,(281) 356-3571
4828780,107906,MALAKOFF ISD,1308 FM 3062,MALAKOFF,TX,75148,6125,(903) 489-1152
4828800,109908,MALONE ISD,P O BOX 38,MALONE,TX,76660,38,(254) 533-2321
4828830,19910,MALTA ISD,6178 W US HWY 82,NEW BOSTON,TX,75570,9500,(903) 667-2950
4828890,227907,MANOR ISD,P O BOX 359,MANOR,TX,78653,359,(512) 278-4000
4828920,220908,MANSFIELD ISD,605 E BROAD ST,MANSFIELD,TX,76063,1794,(817) 299-6300
4828980,22902,MARATHON ISD,P O BOX 416,MARATHON,TX,79842,416,(432) 386-4431
4829010,27904,MARBLE FALLS ISD,1800 COLT CIR,MARBLE FALLS,TX,78654,4803,(830) 693-4357
4829040,189901,MARFA ISD,P O BOX T,MARFA,TX,79843,579,(432) 729-4252
4829100,94904,MARION ISD,P O BOX 189,MARION,TX,78124,189,(830) 914-2803
4829130,73903,MARLIN ISD,130 COLEMAN ST,MARLIN,TX,76661,2899,(254) 883-3585
4829160,102902,MARSHALL ISD,1305 E PINECREST DR,MARSHALL,TX,75670,7349,(903) 927-8701
4829190,161908,MART ISD,P O BOX 120,MART,TX,76664,120,(254) 876-2523
4829220,234905,MARTINS MILL ISD,301 F M 1861,MARTIN'S MILL,TX,75754,9699,(903) 479-3872
4829250,174909,MARTINSVILLE ISD,P O BOX 100,MARTINSVILLE,TX,75958,100,(936) 564-3455
4829280,157901,MASON ISD,P O BOX 410,MASON,TX,76856,410,(325) 347-1144
4829370,158904,MATAGORDA ISD,P O BOX 657,MATAGORDA,TX,77457,657,(979) 863-7693
4829400,205904,MATHIS ISD,P O BOX 1179,MATHIS,TX,78368,1179,(361) 547-3378
4829460,19903,MAUD ISD,P O BOX 1028,MAUD,TX,75567,1028,(903) 585-2219
4829520,25905,MAY ISD,3400 CR 411 E,MAY,TX,76857,30,(254) 259-2091
4829580,70915,MAYPEARL ISD,P O BOX 40,MAYPEARL,TX,76064,40,(972) 435-1000
4829670,108906,MCALLEN ISD,2000 N 23RD ST,MCALLEN,TX,78501,2000,(956) 618-6000
4829700,231901,MCCAMEY ISD,BOX 1069,MCCAMEY,TX,79752,1069,(432) 652-3666
4829760,11905,MCDADE ISD,P O BOX 400,MCDADE,TX,78650,400,(512) 273-2522
4829820,161909,MCGREGOR ISD,P O BOX 356,MCGREGOR,TX,76657,356,(254) 840-2828
4829850,43907,MCKINNEY ISD,1 DUVALL ST,MCKINNEY,TX,75069,3211,(469) 742-4070
4829880,90903,MCLEAN ISD,P O BOX 90,MCLEAN,TX,79057,90,(806) 779-2301
4829910,34906,MCLEOD ISD,P O BOX 350,MCLEOD,TX,75565,350,(903) 796-7181
4829940,162904,MCMULLEN COUNTY ISD,P O BOX 359,TILDEN,TX,78072,359,(361) 274-3315
4830000,223902,MEADOW ISD,604 4TH ST,MEADOW,TX,79345,9801,(806) 539-2246
4830030,10901,MEDINA ISD,P O BOX 1470,MEDINA,TX,78055,1470,(830) 589-2855
4830060,163908,MEDINA VALLEY ISD,8449 F M 471 S,CASTROVILLE,TX,78009,9531,(830) 931-2243
4830120,43908,MELISSA ISD,1904 COOPER,MELISSA,TX,75454,127,(972) 837-2411
4830180,96904,MEMPHIS ISD,P O BOX 460,MEMPHIS,TX,79245,460,(806) 259-5900
4830210,164901,MENARD ISD,P O BOX 729,MENARD,TX,76859,729,(325) 396-2404
4830250,108907,MERCEDES ISD,P O BOX 419,MERCEDES,TX,78570,419,(956) 514-2000
4830300,18902,MERIDIAN ISD,P O BOX 349,MERIDIAN,TX,76665,349,(254) 435-2081
4830340,221904,MERKEL ISD,P O BOX 430,MERKEL,TX,79536,430,(325) 928-5813
4830360,118902,IRION COUNTY ISD,P O BOX 469,MERTZON,TX,76941,469,(325) 835-6111
4830390,57914,MESQUITE ISD,405 E DAVIS ST,MESQUITE,TX,75149,4701,(972) 288-6411
4830420,147903,MEXIA ISD,P O BOX 2000,MEXIA,TX,76667,2452,(254) 562-4000
4830450,62906,MEYERSVILLE ISD,P O BOX 1,MEYERSVILLE,TX,77974,1,(361) 277-5817
4830480,197902,MIAMI ISD,P O BOX 368,MIAMI,TX,79059,368,(806) 868-3971
4830570,165901,MIDLAND ISD,615 W MISSOURI AVE,MIDLAND,TX,79701,5017,(432) 689-1000
4830600,70908,MIDLOTHIAN ISD,100 WALTER STEPHENSON RD,MIDLOTHIAN,TX,76065,3418,(972) 775-8296
4830640,161903,MIDWAY ISD,13885 WOODWAY DR,WOODWAY,TX,76712,6821,(254) 761-5610
4830660,39905,MIDWAY ISD,12142 STATE HWY 148 S,HENRIETTA,TX,76365,7210,(940) 476-2215
4830690,166903,MILANO ISD,P O BOX 145,MILANO,TX,76556,145,(512) 455-2533
4830720,175910,MILDRED ISD,5475 S HWY 287,CORSICANA,TX,75109,9328,(903) 872-6505
4830750,200902,MILES ISD,P O BOX 308,MILES,TX,76861,308,(325) 468-2861
4830780,70909,MILFORD ISD,P O BOX 545,MILFORD,TX,76670,545,(972) 493-2911
4830810,112907,MILLER GROVE ISD,7819 FARM RD 275 S,CUMBY,TX,75433,9711,(903) 459-3288
4830870,184904,MILLSAP ISD,301 E BRAZOS ST,MILLSAP,TX,76066,9444,(940) 682-3101
4830930,250903,MINEOLA ISD,1000 W LOOP,MINEOLA,TX,75773,1617,(903) 569-2448
4830950,182903,MINERAL WELLS ISD,906 S W 5TH AVE,MINERAL WELLS,TX,76067,4895,(940) 325-6404
4831040,108908,MISSION CISD,1201 BRYCE DR,MISSION,TX,78572,4399,(956) 323-5500
4831170,238902,MONAHANS-WICKETT-PYOTE ISD,606 S BETTY AVE,MONAHANS,TX,79756,5018,(432) 943-6711
4831200,169908,MONTAGUE ISD,P O BOX 78,MONTAGUE,TX,76251,78,(940) 894-2811
4831230,108915,MONTE ALTO ISD,25149 1ST ST,MONTE ALTO,TX,78538,9719,(956) 262-1381
4831260,170903,MONTGOMERY ISD,P O BOX 1475,MONTGOMERY,TX,77356,1475,(936) 582-1333
4831290,161910,MOODY ISD,107 CORA LEE LN,MOODY,TX,76557,3638,(254) 853-2172
4831320,209902,MORAN ISD,P O BOX 98,MORAN,TX,76464,98,(325) 945-3101
4831380,18903,MORGAN ISD,P O BOX 300,MORGAN,TX,76671,300,(254) 635-2311
4831410,72910,MORGAN MILL ISD,P O BOX 8,MORGAN MILL,TX,76465,8,(254) 968-4921
4831470,40901,MORTON ISD,500 CHAMPION DR,MORTON,TX,79346,3399,(806) 266-5505
4831500,173901,MOTLEY COUNTY ISD,P O BOX 310,MATADOR,TX,79244,310,(806) 347-2676
4831560,143902,MOULTON ISD,P O DRAWER C,MOULTON,TX,77975,9801,(361) 596-4609
4831620,109910,MOUNT CALM ISD,P O 105,MOUNT CALM,TX,76673,105,(254) 993-2611
4831650,201907,MOUNT ENTERPRISE ISD,301 NW 3RD ST,MOUNT ENTERPRISE,TX,75681,9999,(903) 822-3575
4831760,225902,MOUNT PLEASANT ISD,P O BOX 1117,MOUNT PLEASANT,TX,75456,1117,(903) 575-2000
4831770,80901,MOUNT VERNON ISD,P O BOX 98,MOUNT VERNON,TX,75457,98,(903) 537-2546
4831860,49902,MUENSTER ISD,P O BOX 608,MUENSTER,TX,76252,608,(940) 759-2281
4831890,9901,MULESHOE ISD,514 W AVE G,MULESHOE,TX,79347,3499,(806) 272-7404
4831920,167902,MULLIN ISD,P O BOX 128,MULLIN,TX,76864,128,(325) 985-3374
4831950,198906,MUMFORD ISD,P O BOX 268,MUMFORD,TX,77867,268,(979) 279-3678
4831970,138903,MUNDAY CISD,P O BOX 300,MUNDAY,TX,76371,300,(940) 422-4321
4832010,107908,MURCHISON ISD,P O BOX 538,MURCHISON,TX,75778,538,(903) 469-3636
4832090,174904,NACOGDOCHES ISD,DRAWER 631521,NACOGDOCHES,TX,75963,1521,(936) 569-5000
4832130,163903,NATALIA ISD,P O BOX 548,NATALIA,TX,78059,548,(830) 663-4416
4832160,94903,NAVARRO ISD,P O BOX 10,GERONIMO,TX,78115,10,(830) 372-1930
4832190,93904,NAVASOTA ISD,P O BOX 511,NAVASOTA,TX,77868,511,(936) 825-4200
4832220,35903,NAZARETH ISD,P O BOX 189,NAZARETH,TX,79063,189,(806) 945-2231
4832250,1906,NECHES ISD,P O BOX 310,NECHES,TX,75779,310,(903) 584-3311
4832280,123905,NEDERLAND ISD,220 N 17TH ST,NEDERLAND,TX,77627,5029,(409) 724-2391
4832310,79906,NEEDVILLE ISD,P O BOX 412,NEEDVILLE,TX,77461,412,(979) 793-4308
4832340,19905,NEW BOSTON ISD,600 N MCCOY BLVD,NEW BOSTON,TX,75570,2389,(903) 628-2521
4832370,46901,NEW BRAUNFELS ISD,BOX 311688,NEW BRAUNFELS,TX,78131,1688,(830) 643-5700
4832400,170908,NEW CANEY ISD,21580 LOOP 494,NEW CANEY,TX,77357,9115,(281) 577-8600
4832430,152902,NEW DEAL ISD,P O BOX 280,NEW DEAL,TX,79350,280,(806) 746-5833
4832460,230906,NEW DIANA ISD,1373 US HWY 259 S,DIANA,TX,75640,26,(903) 663-8000
4832490,153905,NEW HOME ISD,P O BOX 248,NEW HOME,TX,79383,248,(806) 924-7542
4832610,37908,NEW SUMMERFIELD ISD,P O BOX 6,NEW SUMMERFIELD,TX,75780,6,(903) 726-3306
4832640,236901,NEW WAVERLY ISD,355 FRONT ST,NEW WAVERLY,TX,77358,3527,(936) 344-6751
4832700,252902,NEWCASTLE ISD,P O BOX 129,NEWCASTLE,TX,76372,129,(940) 846-3551
4832730,176902,NEWTON ISD,414 N MAIN ST,NEWTON,TX,75966,448,(409) 379-8137
4832740,89903,NIXON-SMILEY CISD,P O BOX 400,NIXON,TX,78140,400,(830) 582-1536
4832790,169902,NOCONA ISD,220 CLAY,NOCONA,TX,76255,2104,(940) 825-3267
4832880,62902,NORDHEIM ISD,500 N BROADWAY,NORDHEIM,TX,78141,977,(361) 938-5211
4832910,145906,NORMANGEE ISD,P O BOX 219,NORMANGEE,TX,77871,219,(936) 396-3111
4832940,15910,NORTH EAST ISD,8961 TESORO DR,SAN ANTONIO,TX,78217,6225,(210) 407-0541
4832970,112906,NORTH HOPKINS ISD,1994 FM 71 W,SULPHUR SPRINGS,TX,75482,415,(903) 945-2192
4833010,139911,NORTH LAMAR ISD,3201 LEWIS LN,PARIS,TX,75460,,(903) 737-2000
4833030,154903,NORTH ZULCH ISD,P O BOX 158,NORTH ZULCH,TX,77872,158,(936) 399-1000
4833060,101909,NORTH FOREST ISD,P O BOX 23278,HOUSTON,TX,77228,3278,(713) 633-1600
4833090,244905,NORTHSIDE ISD,18040 HWY 283 N,VERNON,TX,76384,9801,(940) 552-2551
4833120,15915,NORTHSIDE ISD,5900 EVERS RD,SAN ANTONIO,TX,78238,1699,(210) 397-8500
4833180,61911,NORTHWEST ISD,P O BOX 77070,FORT WORTH,TX,76177,70,(817) 215-0000
4833210,42906,NOVICE ISD,P O BOX 205,NOVICE,TX,79538,205,(325) 625-4069
4833240,69902,NUECES CANYON CISD,P O BOX 118,BARKSDALE,TX,78828,118,(830) 234-3514
4833270,235904,NURSERY ISD,P O BOX 69,NURSERY,TX,77976,69,(361) 575-6882
4833340,145907,OAKWOOD ISD,631 N HOLLY,OAKWOOD,TX,75855,802,(903) 545-2666
4833360,205905,ODEM-EDROY ISD,1 OWL SQ,ODEM,TX,78370,925,(361) 368-2561
4833390,153903,O'DONNELL ISD,P O BOX 487,O'DONNELL,TX,79351,487,(806) 428-3241
4833420,50904,OGLESBY ISD,P O BOX 158,OGLESBY,TX,76561,158,(254) 456-2271
4833570,200906,OLFEN ISD,1122 PRIVATE RD 2562,ROWENA,TX,76875,9502,(325) 442-4301
4833630,252903,OLNEY ISD,809 W HAMILTON,OLNEY,TX,76374,548,(940) 564-3519
4833660,140905,OLTON ISD,P O BOX 388,OLTON,TX,79064,388,(806) 285-2641
4833690,187910,ONALASKA ISD,P O BOX 2289,ONALASKA,TX,77360,2289,(936) 646-1000
4833720,125903,ORANGE GROVE ISD,P O BOX 534,ORANGE GROVE,TX,78372,534,(361) 384-2495
4833780,181905,ORANGEFIELD ISD,P O BOX 228,ORANGEFIELD,TX,77639,228,(409) 735-5337
4833840,230903,ORE CITY ISD,100 REBEL RD,ORE CITY,TX,75683,100,(903) 968-3300
4833870,201908,OVERTON ISD,P O BOX 130,OVERTON,TX,75684,130,(903) 834-6145
4833900,51901,PADUCAH ISD,P O BOX P,PADUCAH,TX,79248,1183,(806) 492-3524
4833960,104907,PAINT CREEK ISD,4485 FM 600,HASKELL,TX,79521,9404,(940) 864-2471
4833980,48903,PAINT ROCK ISD,P O BOX 277,PAINT ROCK,TX,76866,277,(325) 732-4314
4834020,158905,PALACIOS ISD,1209 12TH ST,PALACIOS,TX,77465,3799,(361) 972-5491
4834050,1907,PALESTINE ISD,1007 E PARK AVE,PALESTINE,TX,75801,5847,(903) 731-8000
4834110,70910,PALMER ISD,P O BOX 790,PALMER,TX,75152,790,(972) 449-3389
4834140,182906,PALO PINTO ISD,P O BOX 280,PALO PINTO,TX,76484,280,(940) 659-2745
4834170,90904,PAMPA ISD,321 W ALBERT ST,PAMPA,TX,79065,7801,(806) 669-4700
4834230,33902,PANHANDLE ISD,P O BOX 1030,PANHANDLE,TX,79068,1030,(806) 537-3568
4834260,249906,PARADISE ISD,338 SCHOOLHOUSE RD,PARADISE,TX,76073,646,(940) 969-5000
4834290,139909,PARIS ISD,1920 CLARKSVILLE,PARIS,TX,75460,6294,(903) 737-7473
4834320,101917,PASADENA ISD,1515 CHERRYBROOK,PASADENA,TX,77502,4099,(903) 737-7473
4834380,63906,PATTON SPRINGS ISD,P O BOX 32,AFTON,TX,79220,32,(806) 689-2220
4834410,13902,PAWNEE ISD,P O BOX 569,PAWNEE,TX,78145,569,(361) 456-7256
4834440,20908,PEARLAND ISD,P O BOX 7,PEARLAND,TX,77581,4209,(281) 485-3203
4834470,82903,PEARSALL ISD,318 BERRY RANCH RD,PEARSALL,TX,78061,3315,(830) 334-8001
4834500,184908,PEASTER ISD,P O BOX 129,PEASTER,TX,76485,129,(817) 341-5000
4834550,195901,PECOS-BARSTOW-TOYAH ISD,P O BOX 869,PECOS,TX,79772,869,(432) 447-7201
4834560,109914,PENELOPE ISD,P O BOX 68,PENELOPE,TX,76676,68,(254) 533-2215
4834630,119903,PERRIN-WHITT CISD,216 N BENSON,PERRIN,TX,76486,39,(940) 798-3718
4834650,179901,PERRYTON ISD,P O BOX 1048,PERRYTON,TX,79070,1048,(806) 435-5478
4834680,95904,PETERSBURG ISD,P O BOX 160,PETERSBURG,TX,79250,160,(806) 667-3585
4834710,39903,PETROLIA ISD,P O BOX 176,PETROLIA,TX,76377,176,(940) 524-3555
4834770,13903,PETTUS ISD,P O BOX D,PETTUS,TX,78146,1149,(361) 375-2296
4834800,172905,PEWITT CISD,P O BOX 1106,OMAHA,TX,75571,1106,(903) 884-2804
4834830,227904,PFLUGERVILLE ISD,1401 W PECAN ST,PFLUGERVILLE,TX,78660,2518,(512) 594-0000
4834860,108909,PHARR-SAN JUAN-ALAMO ISD,601 E KELLY,PHARR,TX,78577,345,(956) 354-2000
4834920,61903,PILOT POINT ISD,829 S HARRISON ST,PILOT POINT,TX,76258,4347,(940) 686-8700
4834980,92904,PINE TREE ISD,P O BOX 5878,LONGVIEW,TX,75608,5878,(903) 295-5000
4835010,32902,PITTSBURG ISD,P O BOX 1189,PITTSBURG,TX,75686,621,(903) 856-3628
4835040,251902,PLAINS ISD,P O BOX 479,PLAINS,TX,79355,479,(806) 456-7401
4835070,95905,PLAINVIEW ISD,P O BOX 1540,PLAINVIEW,TX,79073,1540,(806) 296-6392
4835100,43910,PLANO ISD,2700 W 15TH,PLANO,TX,75075,7524,(469) 752-8100
4835130,19912,PLEASANT GROVE ISD,8500 N KINGS HWY,TEXARKANA,TX,75503,4893,(903) 831-4086
4835190,7905,PLEASANTON ISD,831 STADIUM DR,PLEASANTON,TX,78064,2499,(830) 569-1200
4835250,31909,POINT ISABEL ISD,101 PORT RD,PORT ISABEL,TX,78578,2433,(956) 943-0005
4835310,61906,PONDER ISD,400 W BAILEY ST,PONDER,TX,76259,278,(940) 479-8200
4835340,184901,POOLVILLE ISD,P O BOX 96,POOLVILLE,TX,76487,96,(817) 594-4452
4835370,178908,PORT ARANSAS ISD,100 STATION ST,PORT ARANSAS,TX,78373,857,(361) 749-1200
4835400,123907,PORT ARTHUR ISD,P O BOX 1388,PORT ARTHUR,TX,77641,1388,(409) 989-6244
4835430,123908,PORT NECHES-GROVES ISD,620 AVE C,PORT NECHES,TX,77651,3092,(409) 722-4244
4835490,85902,POST ISD,501 S AVE K,POST,TX,79356,70,(806) 495-3343
4835520,7906,POTEET ISD,P O BOX 138,POTEET,TX,78065,138,(830) 742-3567
4835550,247904,POTH ISD,P O BOX 250,POTH,TX,78147,250,(830) 484-3330
4835560,188903,HIGHLAND PARK ISD,P O BOX 30430,AMARILLO,TX,79120,430,(806) 335-2823
4835570,188904,BUSHLAND ISD,P O BOX 60,BUSHLAND,TX,79012,60,(806) 359-6683
4835580,91913,POTTSBORO ISD,P O BOX 555,POTTSBORO,TX,75076,555,(903) 786-3051
4835700,28906,PRAIRIE LEA ISD,P O BOX 9,PRAIRIE LEA,TX,78661,9,(512) 488-2370
4835730,169909,PRAIRIE VALLEY ISD,12920 FM 103,NOCONA,TX,76255,9521,(940) 825-4425
4835740,139912,PRAIRILAND ISD,466 FM 196 S,PATTONVILLE,TX,75468,9801,(903) 652-6476
4835760,125905,PREMONT ISD,P O BOX 530,PREMONT,TX,78375,530,(361) 348-3915
4835800,189902,PRESIDIO ISD,P O BOX 1401,PRESIDIO,TX,79845,1401,(432) 229-3275
4835820,167904,PRIDDY ISD,P O BOX 40,PRIDDY,TX,76870,40,(325) 966-3323
4835850,43911,PRINCETON ISD,321 PANTHER PKWY,PRINCETON,TX,75407,1002,(469) 952-5400
4835890,98903,PRINGLE-MORSE CISD,P O BOX 109,MORSE,TX,79062,109,(806) 733-2507
4835910,108910,PROGRESO ISD,P O BOX 610,PROGRESO,TX,78579,610,(956) 565-3002
4836000,43912,PROSPER ISD,P O BOX 100,PROSPER,TX,75078,100,(469) 219-2000
4836180,99903,QUANAH ISD,P O BOX 150,QUANAH,TX,79252,150,(940) 663-2281
4836210,34907,QUEEN CITY ISD,P O BOX 128,QUEEN CITY,TX,75572,128,(903) 796-8256
4836240,116908,QUINLAN ISD,301 E MAIN ST,QUINLAN,TX,75474,9690,(903) 356-1200
4836300,250904,QUITMAN ISD,1201 E GOODE ST,QUITMAN,TX,75783,1640,(903) 763-5000
4836360,190903,RAINS ISD,P O BOX 247,EMORY,TX,75440,247,(903) 473-2222
4836390,54903,RALLS ISD,810 AVE I,RALLS,TX,79357,1509,(806) 253-2509
4836420,66005,RAMIREZ CSD,10492 SCHOOL ST,REALITOS,TX,78376,2644,(361) 539-4343
4836450,15906,RANDOLPH FIELD ISD,P O BOX 2217,UNIVERSAL CITY,TX,78148,1217,(210) 357-2300
4836480,67907,RANGER ISD,1842 LOOP 254 E,RANGER,TX,76470,9802,(254) 647-1187
4836510,231902,RANKIN ISD,P O BOX 90,RANKIN,TX,79778,90,(432) 693-2461
4836540,245903,RAYMONDVILLE ISD,ONE BEARKAT BLVD,RAYMONDVILLE,TX,78580,3351,(956) 689-8176
4836570,192901,REAGAN COUNTY ISD,1111 E TWELFTH ST,BIG LAKE,TX,76932,3513,(325) 884-3705
4836630,19911,RED LICK ISD,3511 N FM 2148,TEXARKANA,TX,75503,4821,(903) 838-8230
4836660,70911,RED OAK ISD,P O BOX 9000,RED OAK,TX,75154,9000,(972) 617-2941
4836750,19906,REDWATER ISD,P O BOX 347,REDWATER,TX,75573,347,(903) 671-3481
4836780,196903,REFUGIO ISD,212 W VANCE ST,REFUGIO,TX,78377,1106,(361) 526-2325
4836930,137902,RICARDO ISD,138 W CR 2160,KINGSVILLE,TX,78363,9708,(361) 592-6465
4836960,175911,RICE ISD,1302 SW MCKINNEY ST,RICE,TX,75155,450,(903) 326-4287
4836970,45903,RICE CISD,P O BOX 338,ALTAIR,TX,77412,338,(979) 234-3531
4836990,93905,RICHARDS ISD,P O BOX 308,RICHARDS,TX,77873,308,(936) 851-2364
4837020,57916,RICHARDSON ISD,400 S GREENVILLE AVE,RICHARDSON,TX,75081,4198,(469) 593-0000
4837080,206902,RICHLAND SPRINGS ISD,700 W COYOTE TRL,RICHLAND SPRINGS,TX,76871,1005,(325) 452-3524
4837110,161912,RIESEL ISD,600 FREDERICK,RIESEL,TX,76682,2931,(254) 896-6411
4837140,214901,RIO GRANDE CITY CISD,FORT RINGGOLD,RIO GRANDE CITY,TX,78582,4799,(956) 716-6750
4837150,31916,SOUTH TEXAS ISD,100 MED HIGH DR,MERCEDES,TX,78570,9702,(956) 514-4216
4837170,31911,RIO HONDO ISD,215 W COLORADO,RIO HONDO,TX,78583,220,(956) 748-1000
4837200,126907,RIO VISTA ISD,P O BOX 369,RIO VISTA,TX,76093,369,(817) 373-2241
4837230,67908,RISING STAR ISD,P O BOX 37,RISING STAR,TX,76471,37,(254) 643-2717
4837260,188902,RIVER ROAD ISD,9500 U S 287 N,AMARILLO,TX,79108,1620,(806) 381-7800
4837320,137903,RIVIERA ISD,203 SEAHAWK DR,RIVIERA,TX,78379,3500,(361) 296-3101
4837380,41902,ROBERT LEE ISD,1323 HAMILTON ST,ROBERT LEE,TX,76945,9501,(325) 453-4555
4837410,161922,ROBINSON ISD,500 W LYNDALE,ROBINSON,TX,76706,5505,(254) 662-0194
4837440,178909,ROBSTOWN ISD,801 N 1ST ST,ROBSTOWN,TX,78380,2608,(361) 767-6600
4837470,76903,ROBY CISD,P O BOX 519,ROBY,TX,79543,519,(325) 776-2222
4837500,160904,ROCHELLE ISD,P O BOX 167,ROCHELLE,TX,76872,167,(325) 243-5224
4837590,166904,ROCKDALE ISD,P O BOX 632,ROCKDALE,TX,76567,632,(512) 430-6000
4837650,199901,ROCKWALL ISD,1050 WILLIAMS,ROCKWALL,TX,75087,3832,(972) 771-0605
4837710,14907,ROGERS ISD,1 EAGLE DR,ROGERS,TX,76569,9998,(254) 642-3802
4837740,214903,ROMA ISD,P O BOX 187,ROMA,TX,78584,187,(956) 849-1377
4837800,152908,ROOSEVELT ISD,1406 CR 3300,LUBBOCK,TX,79403,9643,(806) 842-3282
4837830,110905,ROPES ISD,304 RANCH,ROPESVILLE,TX,79358,8,(806) 562-4031
4837860,177901,ROSCOE ISD,P O BOX 579,ROSCOE,TX,79545,579,(325) 766-3629
4837900,73905,ROSEBUD-LOTT ISD,P O BOX 638,ROSEBUD,TX,76570,638,(254) 583-4510
4838040,76904,ROTAN ISD,102 N MCKINLEY AVE,ROTAN,TX,79546,4609,(325) 735-2332
4838080,246909,ROUND ROCK ISD,1311 ROUND ROCK AVE,ROUND ROCK,TX,78681,4941,(512) 464-5000
4838100,75908,ROUND TOP-CARMINE ISD,P O BOX 385,CARMINE,TX,78932,385,(979) 249-3200
4838160,139908,ROXTON ISD,P O BOX 307,ROXTON,TX,75477,307,(903) 346-3213
4838190,237905,ROYAL ISD,P O BOX 489,PATTISON,TX,77466,489,(281) 934-2248
4838220,199902,ROYSE CITY ISD,P O BOX 479,ROYSE CITY,TX,75189,479,(972) 636-2413
4838280,104903,RULE ISD,1100 UNION AVE,RULE,TX,79547,307,(940) 997-2521
4838310,128903,RUNGE ISD,P O BOX 158,RUNGE,TX,78151,158,(830) 239-4315
4838360,37907,RUSK ISD,203 E 7TH ST,RUSK,TX,75785,1122,(903) 683-5592
4838400,91914,S AND S CISD,P O BOX 837,SADLER,TX,76264,837,(903) 564-6051
4838430,232902,SABINAL ISD,P O BOX 338,SABINAL,TX,78881,338,(830) 988-2472
4838460,92906,SABINE ISD,5424 FM 1252 W,GLADEWATER,TX,75647,9711,(903) 984-8564
4838490,123913,SABINE PASS ISD,P O BOX 1148,SABINE PASS,TX,77655,1148,(409) 971-2321
4838520,169911,SAINT JO ISD,DRAWER L,SAINT JO,TX,76265,320,(940) 995-2668
4838580,14908,SALADO ISD,P O BOX 98,SALADO,TX,76571,98,(254) 947-6900
4838610,112909,SALTILLO ISD,P O BOX 269,SALTILLO,TX,75478,269,(903) 537-2386
4838640,74917,SAM RAYBURN ISD,9363 E FM 273,IVANHOE,TX,75447,9717,(903) 664-2255
4838670,44904,SAMNORWOOD ISD,P O BOX 765,SAMNORWOOD,TX,79077,765,(806) 256-2039
4838700,226903,SAN ANGELO ISD,1621 UNIVERSITY AVE,SAN ANGELO,TX,76904,5164,(325) 947-3700
4838730,15907,SAN ANTONIO ISD,141 LAVACA ST,SAN ANTONIO,TX,78210,1039,(210) 554-2200
4838760,203901,SAN AUGUSTINE ISD,HIGH SCHOOL DR,SAN AUGUSTINE,TX,75972,2298,(936) 275-2306
4838790,31912,SAN BENITO CISD,240 N CROCKETT ST,SAN BENITO,TX,78586,4608,(956) 361-6110
4838820,66902,SAN DIEGO ISD,609 W LABBE ST,SAN DIEGO,TX,78384,3499,(361) 279-3382
4838850,71904,SAN ELIZARIO ISD,P O BOX 920,SAN ELIZARIO,TX,79849,920,(915) 872-3900
4838900,233901,SAN FELIPE-DEL RIO CISD,P O DRAWER 428002,DEL RIO,TX,78842,128,(830) 778-4007
4838910,214902,SAN ISIDRO ISD,P O BOX 10,SAN ISIDRO,TX,78588,10,(956) 481-3110
4838970,105902,SAN MARCOS CISD,P O BOX 1087,SAN MARCOS,TX,78667,1087,(512) 393-6700
4839000,245904,SAN PERLITA ISD,P O BOX 37,SAN PERLITA,TX,78590,37,(956) 248-5563
4839030,206901,SAN SABA ISD,808 W WALLACE,SAN SABA,TX,76877,3523,(325) 372-3771
4839060,22903,SAN VICENTE ISD,P O BOX 195,BIG BEND NATIONAL PARK,TX,79834,195,(432) 477-2220
4839120,58909,SANDS CISD,P O BOX 218,ACKERLY,TX,79713,218,(432) 353-4888
4839150,117903,SANFORD-FRITCH ISD,P O BOX 1290,FRITCH,TX,79036,1290,(806) 857-3122
4839180,61908,SANGER ISD,601 ELM ST,SANGER,TX,76266,9635,(940) 458-7438
4839210,42903,SANTA ANNA ISD,701 BOWIE ST,SANTA ANNA,TX,76878,99,(325) 348-3136
4839270,84909,SANTA FE ISD,P O BOX 370,SANTA FE,TX,77510,370,(409) 925-3526
4839300,137904,SANTA GERTRUDIS ISD,P O BOX 592 KING RANCH,KINGSVILLE,TX,78364,592,(361) 592-3937
4839330,31913,SANTA MARIA ISD,P O BOX 448,SANTA MARIA,TX,78592,448,(956) 565-6308
4839360,31914,SANTA ROSA ISD,P O BOX 368,SANTA ROSA,TX,78593,368,(956) 636-9800
4839390,182904,SANTO ISD,P O BOX 67,SANTO,TX,76472,67,(940) 769-2835
4839450,74911,SAVOY ISD,302 W HAYES,SAVOY,TX,75479,446,(903) 965-5262
4839480,94902,SCHERTZ-CIBOLO-U CITY ISD,1060 ELBEL RD,SCHERTZ,TX,78154,2099,(210) 945-6200
4839510,207901,SCHLEICHER ISD,P O BOX W,ELDORADO,TX,76936,1247,(325) 853-2514
4839540,75903,SCHULENBURG ISD,521 N ST,SCHULENBURG,TX,78956,1467,(979) 743-3448
4839570,129910,SCURRY-ROSSER ISD,10705 S STATE HWY 34,SCURRY,TX,75158,3163,(972) 452-8823
4839600,83901,SEAGRAVES ISD,P O BOX 577,SEAGRAVES,TX,79359,577,(806) 387-2035
4839630,8902,SEALY ISD,939 TIGER LN,SEALY,TX,77474,3211,(979) 885-3516
4839690,94901,SEGUIN ISD,1221 E KINGSBURY,SEGUIN,TX,78155,,(830) 372-5771
4839750,83903,SEMINOLE ISD,207 S W 6TH ST,SEMINOLE,TX,79360,4305,(432) 758-3662
4839780,12901,SEYMOUR ISD,409 W IDAHO ST,SEYMOUR,TX,76380,1650,(940) 889-3525
4839870,152909,SHALLOWATER ISD,1100 AVE K,SHALLOWATER,TX,79363,220,(806) 832-4531
4839900,242902,SHAMROCK ISD,100 S ILLINOIS ST,SHAMROCK,TX,79079,2434,(806) 256-3492
4839930,108911,SHARYLAND ISD,1106 N SHARY RD,MISSION,TX,78572,4652,(956) 580-5200
4839960,210903,SHELBYVILLE ISD,P O BOX 325,SHELBYVILLE,TX,75973,325,(936) 598-2641
4839990,101924,SHELDON ISD,11411 C E KING PKWY,HOUSTON,TX,77044,2002,(281) 727-2000
4840020,204904,SHEPHERD ISD,1401 S BYRD AVE,SHEPHERD,TX,77371,429,(936) 628-3396
4840080,91906,SHERMAN ISD,P O BOX 1176,SHERMAN,TX,75091,1176,(903) 891-6400
4840110,143903,SHINER ISD,P O BOX 804,SHINER,TX,77984,804,(361) 594-3121
4840170,47905,SIDNEY ISD,P O BOX 190,SIDNEY,TX,76474,190,(254) 842-5500
4840200,115902,SIERRA BLANCA ISD,P O BOX 308,SIERRA BLANCA,TX,79851,308,(915) 369-3741
4840230,100904,SILSBEE ISD,415 HWY 327 W,SILSBEE,TX,77656,4799,(409) 980-7800
4840290,23902,SILVERTON ISD,P O BOX 608,SILVERTON,TX,79257,608,(806) 823-2476
4840320,19909,SIMMS ISD,P O BOX 9,SIMMS,TX,75574,9,(903) 543-2219
4840350,205906,SINTON ISD,P O BOX 1337,SINTON,TX,78387,1337,(361) 364-6800
4840380,49909,SIVELLS BEND ISD,1053 CR 403,GAINESVILLE,TX,76240,9307,(940) 665-6411
4840410,13905,SKIDMORE-TYNAN ISD,224 W MAIN,SKIDMORE,TX,78389,409,(361) 287-3426
4840440,152903,SLATON ISD,140 E PANHANDLE,SLATON,TX,79364,4238,(806) 828-6591
4840470,249908,SLIDELL ISD,P O BOX 69,SLIDELL,TX,76267,69,(940) 466-3118
4840500,1909,SLOCUM ISD,5765 E STATE HWY 294,ELKHART,TX,75839,9802,(903) 478-3624
4840550,11904,SMITHVILLE ISD,P O BOX 479,SMITHVILLE,TX,78957,479,(512) 237-2487
4840590,110906,SMYER ISD,P O BOX 206,SMYER,TX,79367,206,(806) 234-2935
4840620,26903,SNOOK ISD,P O BOX 87,SNOOK,TX,77878,87,(979) 272-8307
4840650,208902,SNYDER ISD,2901 37TH ST,SNYDER,TX,79549,5226,(325) 573-5401
4840680,15908,SOUTH SAN ANTONIO ISD,5622 RAY ELLISON BLVD,SAN ANTONIO,TX,78242,2214,(210) 977-7040
4840710,71909,SOCORRO ISD,12440 ROJAS DR,EL PASO,TX,79928,5400,(915) 937-0013
4840740,15909,SOMERSET ISD,P O BOX 279,SOMERSET,TX,78069,279,(866) 852-9858
4840770,26902,SOMERVILLE ISD,P O BOX 997,SOMERVILLE,TX,77879,997,(979) 596-2153
4840800,218901,SONORA ISD,807 S CONCHO AVE,SONORA,TX,76950,3922,(325) 387-6940
4840890,85903,SOUTHLAND ISD,190 EIGHTH ST,SOUTHLAND,TX,79364,9549,(806) 996-5599
4840920,15917,SOUTHSIDE ISD,1460 MARTINEZ LOSOYA RD,SAN ANTONIO,TX,78221,9648,(210) 882-1600
4840950,15912,SOUTHWEST ISD,11914 DRAGON LN,SAN ANTONIO,TX,78252,2647,(210) 622-4731
4841010,98904,SPEARMAN ISD,403 E 11TH AVE,SPEARMAN,TX,79081,4008,(806) 659-3233
4841070,170907,SPLENDORA ISD,23419 FM 2090,SPLENDORA,TX,77372,6211,(281) 689-3128
4841100,101920,SPRING BRANCH ISD,955 CAMPBELL RD,HOUSTON,TX,77024,2803,(713) 464-1511
4841130,117907,SPRING CREEK ISD,HCR 01 BOX 48,SKELLYTOWN,TX,79080,9607,(806) 273-6791
4841190,92907,SPRING HILL ISD,3101 SPRING HILL RD,LONGVIEW,TX,75605,2822,(903) 759-4404
4841220,101919,SPRING ISD,16717 ELLA BLVD,HOUSTON,TX,77090,4299,(281) 891-6000
4841250,140907,SPRINGLAKE-EARTH ISD,P O BOX 130,EARTH,TX,79031,130,(806) 257-3310
4841280,184902,SPRINGTOWN ISD,301 E FIFTH ST,SPRINGTOWN,TX,76082,2566,(817) 220-7243
4841340,229905,SPURGER ISD,P O BOX 38,SPURGER,TX,77660,38,(409) 429-3464
4841350,79910,STAFFORD MSD,1625 STAFFORDSHIRE RD,STAFFORD,TX,77477,6326,(281) 261-9200
4841400,127906,STAMFORD ISD,507 S ORIENT ST,STAMFORD,TX,79553,5701,(325) 773-2705
4841430,156902,STANTON ISD,P O BOX 730,STANTON,TX,79782,730,(432) 756-2244
4841460,167903,STAR ISD,P O BOX 838,STAR,TX,76880,838,(325) 948-3661
4841520,72903,STEPHENVILLE,2655 W OVERHILL,STEPHENVILLE,TX,76401,3003,(254) 968-7990
4841550,216901,STERLING CITY ISD,P O BOX 786,STERLING CITY,TX,76951,786,(325) 378-4781
4841580,117904,PLEMONS-STINNETT-PHILLIPS CISD,P O BOX 3440,STINNETT,TX,79083,3440,(806) 878-2858
4841610,247906,STOCKDALE ISD,P O BOX 7,STOCKDALE,TX,78160,7,(830) 996-3551
4841670,211902,STRATFORD ISD,P O BOX 108,STRATFORD,TX,79084,108,(806) 366-3300
4841700,182905,STRAWN ISD,P O BOX 428,STRAWN,TX,76475,428,(254) 672-5313
4841760,140908,SUDAN ISD,P O BOX 249,SUDAN,TX,79371,249,(806) 227-2431
4841790,112910,SULPHUR BLUFF ISD,P O BOX 30,SULPHUR BLUFF,TX,75481,30,(903) 945-2460
4841820,112901,SULPHUR SPRINGS ISD,631 CONNALLY ST,SULPHUR SPRINGS,TX,75482,2401,(903) 885-2153
4841850,110907,SUNDOWN ISD,P O BOX 1110,SUNDOWN,TX,79372,1110,(806) 229-3021
4841880,57919,SUNNYVALE ISD,417 E TRIPP RD,SUNNYVALE,TX,75182,9544,(972) 226-7601
4841910,171902,SUNRAY ISD,P O BOX 240,SUNRAY,TX,79086,240,(806) 948-4411
4841970,20906,SWEENY ISD,1310 N ELM ST,SWEENY,TX,77480,1399,(979) 491-8000
4842000,143905,SWEET HOME ISD,P O BOX 326,SWEET HOME,TX,77987,326,(361) 293-3221
4842030,177902,SWEETWATER ISD,207 MUSGROVE ST,SWEETWATER,TX,79556,5321,(325) 235-8601
4842060,205907,TAFT ISD,400 COLLEGE ST,TAFT,TX,78390,2702,(361) 528-2636
4842090,153904,TAHOKA ISD,P O BOX 1230,TAHOKA,TX,79373,1230,(806) 561-4105
4842120,194903,RIVERCREST ISD,4100 US HWY 271 S,BOGATA,TX,75417,130,(903) 632-5203
4842210,146907,TARKINGTON ISD,2770 FM 163,CLEVELAND,TX,77327,8811,(281) 592-8781
4842240,201910,TATUM ISD,P O BOX 808,TATUM,TX,75691,808,(903) 947-6482
4842280,246911,TAYLOR ISD,602 W 12TH ST,TAYLOR,TX,76574,2998,(512) 365-1391
4842300,81904,TEAGUE ISD,420 N 10TH,TEAGUE,TX,75860,1624,(254) 739-3071
4842330,14909,TEMPLE ISD,P O BOX 788,TEMPLE,TX,76503,788,(254) 215-6760
4842360,210904,TENAHA ISD,P O BOX 318,TENAHA,TX,75974,318,(936) 248-5000
4842390,22004,TERLINGUA CSD,P O BOX 256,TERLINGUA,TX,79852,256,(432) 371-2281
4842420,222901,TERRELL COUNTY ISD,P O BOX 747,SANDERSON,TX,79848,747,(432) 345-2515
4842450,129906,TERRELL ISD,700 N CATHERINE ST,TERRELL,TX,75160,2161,(972) 563-7504
4842480,19907,TEXARKANA ISD,4241 SUMMERHILL RD,TEXARKANA,TX,75503,2733,(903) 794-3651
4842510,84906,TEXAS CITY ISD,P O BOX 1150,TEXAS CITY,TX,77592,1150,(409) 916-0100
4842540,211901,TEXHOMA ISD,P O BOX 709,TEXHOMA,TX,73949,709,(806) 827-7400
4842570,56902,TEXLINE ISD,P O BOX 60,TEXLINE,TX,79087,60,(806) 362-4667
4842630,166905,THORNDALE ISD,P O BOX 870,THORNDALE,TX,76577,870,(512) 898-2538
4842660,246912,THRALL ISD,201 S BOUNDS,THRALL,TX,76578,398,(512) 898-0062
4842690,149902,THREE RIVERS ISD,108 N SCHOOL RD,THREE RIVERS,TX,78071,753,(361) 786-3603
4842720,72901,THREE WAY ISD,247 CR 207,STEPHENVILLE,TX,76401,331,(254) 965-6496
4842780,224901,THROCKMORTON ISD,210 COLLEGE ST,THROCKMORTON,TX,76483,5011,(940) 849-2411
4842810,158902,TIDEHAVEN ISD,P O BOX 129,EL MATON,TX,77440,129,(361) 588-6321
4842840,210905,TIMPSON ISD,P O DRAWER 370,TIMPSON,TX,75975,370,(936) 254-2463
4842870,91907,TIOGA ISD,P O BOX 159,TIOGA,TX,76271,159,(940) 437-2366
4842900,111903,TOLAR ISD,P O BOX 368,TOLAR,TX,76476,368,(254) 835-4718
4842930,91918,TOM BEAN ISD,P O BOX 128,TOM BEAN,TX,75489,128,(903) 546-6076
4842960,101921,TOMBALL ISD,221 W MAIN ST,TOMBALL,TX,77375,5529,(281) 357-3100
4842990,71908,TORNILLO ISD,P O BOX 170,TORNILLO,TX,79853,170,(915) 765-3000
4843110,221905,TRENT ISD,P O BOX 105,TRENT,TX,79561,105,(325) 862-6400
4843140,74912,TRENTON ISD,P O BOX 5,TRENTON,TX,75490,5,(903) 989-2245
4843170,107907,TRINIDAD ISD,105 W EATON ST,TRINIDAD,TX,75163,6074,(903) 778-2673
4843200,228903,TRINITY ISD,P O BOX 752,TRINITY,TX,75862,752,(936) 594-3569
4843230,212904,TROUP ISD,P O BOX 578,TROUP,TX,75789,578,(903) 842-3067
4843260,14910,TROY ISD,P O BOX 409,TROY,TX,76579,409,(254) 938-2595
4843290,1908,WESTWOOD ISD,P O BOX 260,PALESTINE,TX,75802,260,(903) 729-1776
4843320,219903,TULIA ISD,702 NW 8TH ST,TULIA,TX,79088,1199,(806) 995-4591
4843350,178912,TULOSO-MIDWAY ISD,P O BOX 10900,CORPUS CHRISTI,TX,78460,900,(361) 903-6400
4843400,96905,TURKEY-QUITAQUE ISD,P O BOX 397,TURKEY,TX,79261,397,(806) 455-1411
4843470,212905,TYLER ISD,P O BOX 2035,TYLER,TX,75710,2035,(903) 262-1000
4843530,230908,UNION GROVE ISD,P O BOX 1447,GLADEWATER,TX,75647,1447,(903) 845-5509
4843560,230904,UNION HILL ISD,2197 FM 2088,GILMER,TX,75644,5559,(903) 762-2140
4843650,240903,UNITED ISD,201 LINDENWOOD DR,LAREDO,TX,78045,2499,(956) 473-6201
4843680,232904,UTOPIA ISD,P O BOX 880,UTOPIA,TX,78884,880,(830) 966-1928
4843720,232903,UVALDE CISD,P O BOX 1909,UVALDE,TX,78802,1909,(830) 278-6655
4843740,122902,VALENTINE ISD,P O BOX 188,VALENTINE,TX,79854,188,(432) 467-2671
4843760,18904,VALLEY MILLS ISD,P O BOX 518,VALLEY MILLS,TX,76689,518,(254) 932-5210
4843800,108916,VALLEY VIEW ISD,9701 S JACKSON RD,PHARR,TX,78577,485,(956) 843-3025
4843860,49903,VALLEY VIEW ISD,200 NEWTON,VALLEY VIEW,TX,76272,9716,(940) 726-3659
4843890,91908,VAN ALSTYNE ISD,P O BOX 518,VAN ALSTYNE,TX,75495,518,(903) 482-8802
4843920,234906,VAN ISD,P O BOX 697,VAN,TX,75790,697,(903) 963-8328
4843950,158906,VAN VLECK ISD,142 S 4TH ST,VAN VLECK,TX,77482,15,(979) 245-8518
4843980,180902,VEGA ISD,P O BOX 190,VEGA,TX,79092,190,(806) 267-2123
4844010,126908,VENUS ISD,P O BOX 364,VENUS,TX,76084,364,(972) 366-3448
4844040,226908,VERIBEST ISD,P O BOX 490,VERIBEST,TX,76886,475,(325) 655-4912
4844110,244903,VERNON ISD,1713 WILBARGER ST 203,VERNON,TX,76384,4741,(940) 553-1900
4844150,235902,VICTORIA ISD,P O BOX 1759,VICTORIA,TX,77902,1759,(361) 576-3131
4844160,181907,VIDOR ISD,120 E BOLIVAR ST,VIDOR,TX,77662,4907,(409) 951-8714
4844250,143904,VYSEHRAD ISD,595 COUNTY RD 182,HALLETTSVILLE,TX,77964,5844,(361) 798-4118
4844280,161914,WACO ISD,P O BOX 27,WACO,TX,76703,27,(254) 755-9420
4844310,89905,WAELDER ISD,P O BOX 247,WAELDER,TX,78959,247,(830) 788-7161
4844370,59902,WALCOTT ISD,4275 HWY 214,HEREFORD,TX,79045,4153,(806) 289-5222
4844410,226906,WALL ISD,P O BOX 259,WALL,TX,76957,259,(325) 651-7790
4844430,237904,WALLER ISD,2214 WALLER ST,WALLER,TX,77484,1918,(936) 931-3685
4844470,8903,BRAZOS ISD,P O BOX 819,WALLIS,TX,77485,819,(979) 478-6551
4844490,49908,WALNUT BEND ISD,47 C R 198,GAINESVILLE,TX,76240,1140,(940) 665-5990
4844520,18905,WALNUT SPRINGS ISD,P O BOX 63,WALNUT SPRINGS,TX,76690,63,(254) 797-2133
4844580,229904,WARREN ISD,P O BOX 69,WARREN,TX,77664,69,(409) 547-2241
4844670,102903,WASKOM ISD,P O BOX 748,WASKOM,TX,75692,748,(903) 687-3361
4844710,226905,WATER VALLEY ISD,P O BOX 250,WATER VALLEY,TX,76958,250,(325) 484-2478
4844730,70912,WAXAHACHIE ISD,411 N GIBSON ST,WAXAHACHIE,TX,75165,3007,(972) 923-4631
4844800,184903,WEATHERFORD ISD,1100 LONGHORN DR,WEATHERFORD,TX,76086,9999,(817) 598-2800
4844810,240904,WEBB CISD,P O BOX 206,BRUNI,TX,78344,206,(361) 747-5415
4844820,45905,WEIMAR ISD,506 W MAIN,WEIMAR,TX,78962,1907,(979) 725-9506
4844890,44902,WELLINGTON ISD,609 15TH ST,WELLINGTON,TX,79095,3603,(806) 447-2512
4844910,223904,WELLMAN-UNION CISD,P O BOX 69,WELLMAN,TX,79378,69,(806) 637-4910
4844940,37909,WELLS ISD,P O BOX 469,WELLS,TX,75976,469,(936) 867-4466
4844960,108913,WESLACO ISD,P O BOX 266,WESLACO,TX,78599,266,(956) 969-6500
4845000,100908,WEST HARDIN COUNTY CISD,39227 HWY 105,SARATOGA,TX,77585,128,(936) 274-5061
4845040,161916,WEST ISD,801 N REAGAN,WEST,TX,76691,1198,(254) 826-7500
4845090,181906,WEST ORANGE-COVE CISD,P O BOX 1107,ORANGE,TX,77631,1107,(409) 882-5500
4845120,178915,WEST OSO ISD,5050 ROCKFORD DR,CORPUS CHRISTI,TX,78416,2530,(361) 806-5900
4845150,201914,WEST RUSK ISD,P O BOX 168,NEW LONDON,TX,75682,168,(903) 895-4503
4845180,202905,WEST SABINE ISD,P O BOX 869,PINELAND,TX,75968,869,(409) 584-2655
4845210,168903,WESTBROOK ISD,P O BOX 99,WESTBROOK,TX,79565,99,(325) 644-2311
4845240,62905,WESTHOFF ISD,P O BOX 38,WESTHOFF,TX,77994,38,(830) 236-5519
4845330,73904,WESTPHALIA ISD,124 COUNTY RD 3000,LOTT,TX,76656,3897,(254) 584-4988
4845380,241904,WHARTON ISD,2100 N FULTON ST,WHARTON,TX,77488,3146,(979) 532-6201
4845420,242903,WHEELER ISD,P O BOX 1010,WHEELER,TX,79096,1010,(806) 826-5241
4845450,33904,WHITE DEER ISD,P O BOX 517,WHITE DEER,TX,79097,517,(806) 883-2311
4845480,92908,WHITE OAK ISD,200 S WHITE OAK RD,WHITE OAK,TX,75693,1597,(903) 291-2200
4845540,220920,WHITE SETTLEMENT ISD,401 S CHERRY LN,WHITE SETTLEMENT,TX,76108,2521,(817) 367-5349
4845570,40902,WHITEFACE CISD,P O BOX 7,WHITEFACE,TX,79379,7,(806) 287-1154
4845600,212906,WHITEHOUSE ISD,106 W WILDCAT DR,WHITEHOUSE,TX,75791,3130,(903) 839-5500
4845630,91909,WHITESBORO ISD,115 FOURTH ST,WHITESBORO,TX,76273,130,(903) 564-4200
4845670,91910,WHITEWRIGHT ISD,P O BOX 888,WHITEWRIGHT,TX,75491,888,(903) 364-2155
4845690,110908,WHITHARRAL ISD,P O BOX 225,WHITHARRAL,TX,79380,225,(806) 299-1184
4845720,109911,WHITNEY ISD,P O BOX 518,WHITNEY,TX,76692,518,(254) 694-2254
4845780,243905,WICHITA FALLS ISD,P O BOX 97533,WICHITA FALLS,TX,76307,4412,(940) 235-1000
4845840,180904,WILDORADO ISD,P O BOX 120,WILDORADO,TX,79098,120,(806) 426-3317
4845900,170904,WILLIS ISD,204 W ROGERS ST,WILLIS,TX,77378,9239,(936) 856-1200
4845950,234907,WILLS POINT ISD,338 W N COMMERCE ST,WILLS POINT,TX,75169,2504,(903) 873-3161
4845990,153907,WILSON ISD,P O BOX 9,WILSON,TX,79381,9,(806) 628-6271
4846080,5904,WINDTHORST ISD,P O BOX 190,WINDTHORST,TX,76389,190,(940) 423-6688
4846110,225905,WINFIELD ISD,P O BOX 298,WINFIELD,TX,75493,298,(903) 524-2221
4846170,248902,WINK-LOVING ISD,P O BOX 637,WINK,TX,79789,637,(432) 527-3880
4846200,250907,WINNSBORO ISD,207 E PINE ST,WINNSBORO,TX,75494,2628,(903) 342-3737
4846230,212910,WINONA ISD,611 WILDCAT DR,WINONA,TX,75792,218,(903) 939-4001
4846260,200904,WINTERS ISD,603 N HEIGHTS ST,WINTERS,TX,79567,4003,(325) 754-5574
4846320,174906,WODEN ISD,P O BOX 100,WODEN,TX,75978,100,(936) 564-2073
4846350,116909,WOLFE CITY ISD,553 W DALLAS ST,WOLFE CITY,TX,75496,3375,(903) 496-7333
4846380,196902,WOODSBORO ISD,P O DRAWER 770,WOODSBORO,TX,78393,770,(361) 543-4518
4846410,224902,WOODSON ISD,P O BOX 287,WOODSON,TX,76491,287,(940) 345-6528
4846440,229903,WOODVILLE ISD,505 N CHARLTON ST,WOODVILLE,TX,75979,4504,(409) 283-3752
4846470,81905,WORTHAM ISD,P O BOX 247,WORTHAM,TX,76693,247,(254) 765-3095
4846500,221912,WYLIE ISD,6249 BUFFALO GAP RD,ABILENE,TX,79606,5448,(325) 692-4353
4846530,43914,WYLIE ISD,P O BOX 490,WYLIE,TX,75098,490,(972) 429-3000
4846590,250905,YANTIS ISD,105 W OAK ST,YANTIS,TX,75497,149,(903) 383-2463
4846620,62903,YOAKUM ISD,P O BOX 737,YOAKUM,TX,77995,737,(361) 293-3162
4846650,62904,YORKTOWN ISD,P O BOX 487,YORKTOWN,TX,78164,487,(361) 564-2252
4846680,71905,YSLETA ISD,9600 SIMS DR,EL PASO,TX,79925,7225,(915) 434-0000
4846710,253901,ZAPATA COUNTY ISD,P O BOX 158,ZAPATA,TX,78076,158,(956) 765-6546
4846740,3906,ZAVALLA ISD,431 E MAIN ST,ZAVALLA,TX,75980,45,(936) 897-2271
4846770,25906,ZEPHYR ISD,11625 CR 281,ZEPHYR,TX,76890,708,(325) 739-5331
4899130,66901,BENAVIDES ISD,P O DRAWER P,BENAVIDES,TX,78341,916,(361) 256-3003
